{"type":"FeatureCollection","name":"demo-hexagon","crs":{"type":"name","properties":{"name":"urn:ogc:def:crs:EPSG::4326"}},"features":[{"type":"Feature","properties":{"grid_id":"H0000","name":"Hex Demo 0","manual_score":1.826161,"population":600,"purchasing_power_total":337398262,"edu_formal":10,"residential":11,"hospital":5,"recommendation_arin_ndbi":"NO","ses_abc":"B"},"geometry":{"type":"Polygon","coordinates":[[[106.38944450862677,-6.779590576999956],[106.38944450862677,-6.734590576999956],[106.35047336545647,-6.712090576999956],[106.31150222228617,-6.734590576999956],[106.31150222228617,-6.779590576999956],[106.35047336545647,-6.802090576999956],[106.38944450862677,-6.779590576999956]]]}},{"type":"Feature","properties":{"grid_id":"H0001","name":"Hex Demo 1","manual_score":1.442251,"population":393,"purchasing_power_total":321439306,"edu_formal":9,"residential":7,"hospital":4,"recommendation_arin_ndbi":"NO","ses_abc":"B"},"geometry":{"type":"Polygon","coordinates":[[[106.46738679496737,-6.779590576999956],[106.46738679496737,-6.734590576999956],[106.42841565179707,-6.712090576999956],[106.38944450862677,-6.734590576999956],[106.38944450862677,-6.779590576999956],[106.42841565179707,-6.802090576999956],[106.46738679496737,-6.779590576999956]]]}},{"type":"Feature","properties":{"grid_id":"H0002","name":"Hex Demo 2","manual_score":1.947481,"population":1528,"purchasing_power_total":68988581,"edu_formal":12,"residential":27,"hospital":3,"recommendation_arin_ndbi":"NO","ses_abc":"C"},"geometry":{"type":"Polygon","coordinates":[[[106.54532908130795,-6.779590576999956],[106.54532908130795,-6.734590576999956],[106.50635793813765,-6.712090576999956],[106.46738679496735,-6.734590576999956],[106.46738679496735,-6.779590576999956],[106.50635793813765,-6.802090576999956],[106.54532908130795,-6.779590576999956]]]}},{"type":"Feature","properties":{"grid_id":"H0003","name":"Hex Demo 3","manual_score":2.663437,"population":3109,"purchasing_power_total":331456981,"edu_formal":1,"residential":4,"hospital":4,"recommendation_arin_ndbi":"NO","ses_abc":"B"},"geometry":{"type":"Polygon","coordinates":[[[106.62327136764856,-6.779590576999956],[106.62327136764856,-6.734590576999956],[106.58430022447826,-6.712090576999956],[106.54532908130795,-6.734590576999956],[106.54532908130795,-6.779590576999956],[106.58430022447826,-6.802090576999956],[106.62327136764856,-6.779590576999956]]]}},{"type":"Feature","properties":{"grid_id":"H0004","name":"Hex Demo 4","manual_score":4.985647,"population":302,"purchasing_power_total":55503066,"edu_formal":5,"residential":26,"hospital":0,"recommendation_arin_ndbi":"YES","ses_abc":"C"},"geometry":{"type":"Polygon","coordinates":[[[106.70121365398916,-6.779590576999956],[106.70121365398916,-6.734590576999956],[106.66224251081886,-6.712090576999956],[106.62327136764856,-6.734590576999956],[106.62327136764856,-6.779590576999956],[106.66224251081886,-6.802090576999956],[106.70121365398916,-6.779590576999956]]]}},{"type":"Feature","properties":{"grid_id":"H0005","name":"Hex Demo 5","manual_score":4.924842,"population":4867,"purchasing_power_total":233463017,"edu_formal":3,"residential":29,"hospital":3,"recommendation_arin_ndbi":"YES","ses_abc":"B"},"geometry":{"type":"Polygon","coordinates":[[[106.77915594032976,-6.779590576999956],[106.77915594032976,-6.734590576999956],[106.74018479715946,-6.712090576999956],[106.70121365398916,-6.734590576999956],[106.70121365398916,-6.779590576999956],[106.74018479715946,-6.802090576999956],[106.77915594032976,-6.779590576999956]]]}},{"type":"Feature","properties":{"grid_id":"H0006","name":"Hex Demo 6","manual_score":1.191042,"population":4749,"purchasing_power_total":309256934,"edu_formal":2,"residential":1,"hospital":4,"recommendation_arin_ndbi":"NO","ses_abc":"C"},"geometry":{"type":"Polygon","coordinates":[[[106.85709822667036,-6.779590576999956],[106.85709822667036,-6.734590576999956],[106.81812708350006,-6.712090576999956],[106.77915594032976,-6.734590576999956],[106.77915594032976,-6.779590576999956],[106.81812708350006,-6.802090576999956],[106.85709822667036,-6.779590576999956]]]}},{"type":"Feature","properties":{"grid_id":"H0007","name":"Hex Demo 7","manual_score":3.632401,"population":442,"purchasing_power_total":43287913,"edu_formal":6,"residential":5,"hospital":3,"recommendation_arin_ndbi":"YES","ses_abc":"B"},"geometry":{"type":"Polygon","coordinates":[[[106.93504051301096,-6.779590576999956],[106.93504051301096,-6.734590576999956],[106.89606936984066,-6.712090576999956],[106.85709822667036,-6.734590576999956],[106.85709822667036,-6.779590576999956],[106.89606936984066,-6.802090576999956],[106.93504051301096,-6.779590576999956]]]}},{"type":"Feature","properties":{"grid_id":"H0008","name":"Hex Demo 8","manual_score":1.282343,"population":4188,"purchasing_power_total":71044795,"edu_formal":18,"residential":8,"hospital":2,"recommendation_arin_ndbi":"NO","ses_abc":"A"},"geometry":{"type":"Polygon","coordinates":[[[107.01298279935156,-6.779590576999956],[107.01298279935156,-6.734590576999956],[106.97401165618126,-6.712090576999956],[106.93504051301096,-6.734590576999956],[106.93504051301096,-6.779590576999956],[106.97401165618126,-6.802090576999956],[107.01298279935156,-6.779590576999956]]]}},{"type":"Feature","properties":{"grid_id":"H0009","name":"Hex Demo 9","manual_score":4.931961,"population":1953,"purchasing_power_total":332428485,"edu_formal":10,"residential":16,"hospital":5,"recommendation_arin_ndbi":"YES","ses_abc":"C"},"geometry":{"type":"Polygon","coordinates":[[[107.09092508569216,-6.779590576999956],[107.09092508569216,-6.734590576999956],[107.05195394252186,-6.712090576999956],[107.01298279935156,-6.734590576999956],[107.01298279935156,-6.779590576999956],[107.05195394252186,-6.802090576999956],[107.09092508569216,-6.779590576999956]]]}},{"type":"Feature","properties":{"grid_id":"H0010","name":"Hex Demo 10","manual_score":1.957761,"population":1544,"purchasing_power_total":107504980,"edu_formal":18,"residential":1,"hospital":3,"recommendation_arin_ndbi":"NO","ses_abc":"A"},"geometry":{"type":"Polygon","coordinates":[[[107.16886737203276,-6.779590576999956],[107.16886737203276,-6.734590576999956],[107.12989622886246,-6.712090576999956],[107.09092508569216,-6.734590576999956],[107.09092508569216,-6.779590576999956],[107.12989622886246,-6.802090576999956],[107.16886737203276,-6.779590576999956]]]}},{"type":"Feature","properties":{"grid_id":"H0011","name":"Hex Demo 11","manual_score":3.266774,"population":1898,"purchasing_power_total":109211372,"edu_formal":8,"residential":25,"hospital":1,"recommendation_arin_ndbi":"NO","ses_abc":"B"},"geometry":{"type":"Polygon","coordinates":[[[107.24680965837335,-6.779590576999956],[107.24680965837335,-6.734590576999956],[107.20783851520305,-6.712090576999956],[107.16886737203275,-6.734590576999956],[107.16886737203275,-6.779590576999956],[107.20783851520305,-6.802090576999956],[107.24680965837335,-6.779590576999956]]]}},{"type":"Feature","properties":{"grid_id":"H0012","name":"Hex Demo 12","manual_score":2.505282,"population":3126,"purchasing_power_total":248302147,"edu_formal":3,"residential":11,"hospital":5,"recommendation_arin_ndbi":"NO","ses_abc":"C"},"geometry":{"type":"Polygon","coordinates":[[[107.32475194471395,-6.779590576999956],[107.32475194471395,-6.734590576999956],[107.28578080154365,-6.712090576999956],[107.24680965837335,-6.734590576999956],[107.24680965837335,-6.779590576999956],[107.28578080154365,-6.802090576999956],[107.32475194471395,-6.779590576999956]]]}},{"type":"Feature","properties":{"grid_id":"H0013","name":"Hex Demo 13","manual_score":2.937701,"population":2693,"purchasing_power_total":467666155,"edu_formal":17,"residential":25,"hospital":2,"recommendation_arin_ndbi":"NO","ses_abc":"C"},"geometry":{"type":"Polygon","coordinates":[[[106.42841565179707,-6.712090576999956],[106.42841565179707,-6.667090576999956],[106.38944450862677,-6.644590576999956],[106.35047336545647,-6.667090576999956],[106.35047336545647,-6.712090576999956],[106.38944450862677,-6.734590576999956],[106.42841565179707,-6.712090576999956]]]}},{"type":"Feature","properties":{"grid_id":"H0014","name":"Hex Demo 14","manual_score":1.054893,"population":2716,"purchasing_power_total":175053884,"edu_formal":18,"residential":7,"hospital":1,"recommendation_arin_ndbi":"NO","ses_abc":"B"},"geometry":{"type":"Polygon","coordinates":[[[106.50635793813767,-6.712090576999956],[106.50635793813767,-6.667090576999956],[106.46738679496737,-6.644590576999956],[106.42841565179707,-6.667090576999956],[106.42841565179707,-6.712090576999956],[106.46738679496737,-6.734590576999956],[106.50635793813767,-6.712090576999956]]]}},{"type":"Feature","properties":{"grid_id":"H0015","name":"Hex Demo 15","manual_score":3.639025,"population":4999,"purchasing_power_total":174015823,"edu_formal":6,"residential":22,"hospital":4,"recommendation_arin_ndbi":"YES","ses_abc":"A"},"geometry":{"type":"Polygon","coordinates":[[[106.58430022447826,-6.712090576999956],[106.58430022447826,-6.667090576999956],[106.54532908130795,-6.644590576999956],[106.50635793813765,-6.667090576999956],[106.50635793813765,-6.712090576999956],[106.54532908130795,-6.734590576999956],[106.58430022447826,-6.712090576999956]]]}},{"type":"Feature","properties":{"grid_id":"H0016","name":"Hex Demo 16","manual_score":4.31814,"population":1295,"purchasing_power_total":88964625,"edu_formal":13,"residential":14,"hospital":4,"recommendation_arin_ndbi":"YES","ses_abc":"B"},"geometry":{"type":"Polygon","coordinates":[[[106.66224251081886,-6.712090576999956],[106.66224251081886,-6.667090576999956],[106.62327136764856,-6.644590576999956],[106.58430022447826,-6.667090576999956],[106.58430022447826,-6.712090576999956],[106.62327136764856,-6.734590576999956],[106.66224251081886,-6.712090576999956]]]}},{"type":"Feature","properties":{"grid_id":"H0017","name":"Hex Demo 17","manual_score":3.977552,"population":4864,"purchasing_power_total":109881490,"edu_formal":13,"residential":28,"hospital":3,"recommendation_arin_ndbi":"YES","ses_abc":"C"},"geometry":{"type":"Polygon","coordinates":[[[106.74018479715946,-6.712090576999956],[106.74018479715946,-6.667090576999956],[106.70121365398916,-6.644590576999956],[106.66224251081886,-6.667090576999956],[106.66224251081886,-6.712090576999956],[106.70121365398916,-6.734590576999956],[106.74018479715946,-6.712090576999956]]]}},{"type":"Feature","properties":{"grid_id":"H0018","name":"Hex Demo 18","manual_score":1.133132,"population":4097,"purchasing_power_total":162702089,"edu_formal":7,"residential":16,"hospital":1,"recommendation_arin_ndbi":"NO","ses_abc":"A"},"geometry":{"type":"Polygon","coordinates":[[[106.81812708350006,-6.712090576999956],[106.81812708350006,-6.667090576999956],[106.77915594032976,-6.644590576999956],[106.74018479715946,-6.667090576999956],[106.74018479715946,-6.712090576999956],[106.77915594032976,-6.734590576999956],[106.81812708350006,-6.712090576999956]]]}},{"type":"Feature","properties":{"grid_id":"H0019","name":"Hex Demo 19","manual_score":2.855338,"population":2387,"purchasing_power_total":230182318,"edu_formal":7,"residential":11,"hospital":5,"recommendation_arin_ndbi":"NO","ses_abc":"B"},"geometry":{"type":"Polygon","coordinates":[[[106.89606936984066,-6.712090576999956],[106.89606936984066,-6.667090576999956],[106.85709822667036,-6.644590576999956],[106.81812708350006,-6.667090576999956],[106.81812708350006,-6.712090576999956],[106.85709822667036,-6.734590576999956],[106.89606936984066,-6.712090576999956]]]}},{"type":"Feature","properties":{"grid_id":"H0020","name":"Hex Demo 20","manual_score":2.45333,"population":2376,"purchasing_power_total":364885963,"edu_formal":13,"residential":14,"hospital":1,"recommendation_arin_ndbi":"NO","ses_abc":"B"},"geometry":{"type":"Polygon","coordinates":[[[106.97401165618126,-6.712090576999956],[106.97401165618126,-6.667090576999956],[106.93504051301096,-6.644590576999956],[106.89606936984066,-6.667090576999956],[106.89606936984066,-6.712090576999956],[106.93504051301096,-6.734590576999956],[106.97401165618126,-6.712090576999956]]]}},{"type":"Feature","properties":{"grid_id":"H0021","name":"Hex Demo 21","manual_score":2.126153,"population":1721,"purchasing_power_total":483592385,"edu_formal":9,"residential":1,"hospital":4,"recommendation_arin_ndbi":"NO","ses_abc":"C"},"geometry":{"type":"Polygon","coordinates":[[[107.05195394252186,-6.712090576999956],[107.05195394252186,-6.667090576999956],[107.01298279935156,-6.644590576999956],[106.97401165618126,-6.667090576999956],[106.97401165618126,-6.712090576999956],[107.01298279935156,-6.734590576999956],[107.05195394252186,-6.712090576999956]]]}},{"type":"Feature","properties":{"grid_id":"H0022","name":"Hex Demo 22","manual_score":2.068088,"population":2469,"purchasing_power_total":407571549,"edu_formal":8,"residential":25,"hospital":2,"recommendation_arin_ndbi":"NO","ses_abc":"B"},"geometry":{"type":"Polygon","coordinates":[[[107.12989622886246,-6.712090576999956],[107.12989622886246,-6.667090576999956],[107.09092508569216,-6.644590576999956],[107.05195394252186,-6.667090576999956],[107.05195394252186,-6.712090576999956],[107.09092508569216,-6.734590576999956],[107.12989622886246,-6.712090576999956]]]}},{"type":"Feature","properties":{"grid_id":"H0023","name":"Hex Demo 23","manual_score":4.661097,"population":2210,"purchasing_power_total":163989889,"edu_formal":17,"residential":15,"hospital":5,"recommendation_arin_ndbi":"YES","ses_abc":"B"},"geometry":{"type":"Polygon","coordinates":[[[107.20783851520305,-6.712090576999956],[107.20783851520305,-6.667090576999956],[107.16886737203275,-6.644590576999956],[107.12989622886245,-6.667090576999956],[107.12989622886245,-6.712090576999956],[107.16886737203275,-6.734590576999956],[107.20783851520305,-6.712090576999956]]]}},{"type":"Feature","properties":{"grid_id":"H0024","name":"Hex Demo 24","manual_score":2.543288,"population":2407,"purchasing_power_total":145569165,"edu_formal":6,"residential":8,"hospital":2,"recommendation_arin_ndbi":"NO","ses_abc":"C"},"geometry":{"type":"Polygon","coordinates":[[[107.28578080154365,-6.712090576999956],[107.28578080154365,-6.667090576999956],[107.24680965837335,-6.644590576999956],[107.20783851520305,-6.667090576999956],[107.20783851520305,-6.712090576999956],[107.24680965837335,-6.734590576999956],[107.28578080154365,-6.712090576999956]]]}},{"type":"Feature","properties":{"grid_id":"H0025","name":"Hex Demo 25","manual_score":3.113162,"population":873,"purchasing_power_total":132549698,"edu_formal":1,"residential":9,"hospital":3,"recommendation_arin_ndbi":"NO","ses_abc":"A"},"geometry":{"type":"Polygon","coordinates":[[[106.38944450862677,-6.644590576999955],[106.38944450862677,-6.599590576999955],[106.35047336545647,-6.5770905769999555],[106.31150222228617,-6.599590576999955],[106.31150222228617,-6.644590576999955],[106.35047336545647,-6.667090576999955],[106.38944450862677,-6.644590576999955]]]}},{"type":"Feature","properties":{"grid_id":"H0026","name":"Hex Demo 26","manual_score":1.262987,"population":1054,"purchasing_power_total":352741335,"edu_formal":15,"residential":9,"hospital":1,"recommendation_arin_ndbi":"NO","ses_abc":"C"},"geometry":{"type":"Polygon","coordinates":[[[106.46738679496737,-6.644590576999955],[106.46738679496737,-6.599590576999955],[106.42841565179707,-6.5770905769999555],[106.38944450862677,-6.599590576999955],[106.38944450862677,-6.644590576999955],[106.42841565179707,-6.667090576999955],[106.46738679496737,-6.644590576999955]]]}},{"type":"Feature","properties":{"grid_id":"H0027","name":"Hex Demo 27","manual_score":1.750094,"population":4466,"purchasing_power_total":351961993,"edu_formal":1,"residential":19,"hospital":1,"recommendation_arin_ndbi":"NO","ses_abc":"C"},"geometry":{"type":"Polygon","coordinates":[[[106.54532908130795,-6.644590576999955],[106.54532908130795,-6.599590576999955],[106.50635793813765,-6.5770905769999555],[106.46738679496735,-6.599590576999955],[106.46738679496735,-6.644590576999955],[106.50635793813765,-6.667090576999955],[106.54532908130795,-6.644590576999955]]]}},{"type":"Feature","properties":{"grid_id":"H0028","name":"Hex Demo 28","manual_score":3.91601,"population":1304,"purchasing_power_total":183922210,"edu_formal":6,"residential":17,"hospital":0,"recommendation_arin_ndbi":"YES","ses_abc":"B"},"geometry":{"type":"Polygon","coordinates":[[[106.62327136764856,-6.644590576999955],[106.62327136764856,-6.599590576999955],[106.58430022447826,-6.5770905769999555],[106.54532908130795,-6.599590576999955],[106.54532908130795,-6.644590576999955],[106.58430022447826,-6.667090576999955],[106.62327136764856,-6.644590576999955]]]}},{"type":"Feature","properties":{"grid_id":"H0029","name":"Hex Demo 29","manual_score":1.205715,"population":1254,"purchasing_power_total":462739803,"edu_formal":9,"residential":0,"hospital":5,"recommendation_arin_ndbi":"NO","ses_abc":"B"},"geometry":{"type":"Polygon","coordinates":[[[106.70121365398916,-6.644590576999955],[106.70121365398916,-6.599590576999955],[106.66224251081886,-6.5770905769999555],[106.62327136764856,-6.599590576999955],[106.62327136764856,-6.644590576999955],[106.66224251081886,-6.667090576999955],[106.70121365398916,-6.644590576999955]]]}},{"type":"Feature","properties":{"grid_id":"H0030","name":"Hex Demo 30","manual_score":1.987566,"population":2841,"purchasing_power_total":235338380,"edu_formal":17,"residential":8,"hospital":4,"recommendation_arin_ndbi":"NO","ses_abc":"C"},"geometry":{"type":"Polygon","coordinates":[[[106.77915594032976,-6.644590576999955],[106.77915594032976,-6.599590576999955],[106.74018479715946,-6.5770905769999555],[106.70121365398916,-6.599590576999955],[106.70121365398916,-6.644590576999955],[106.74018479715946,-6.667090576999955],[106.77915594032976,-6.644590576999955]]]}},{"type":"Feature","properties":{"grid_id":"H0031","name":"Hex Demo 31","manual_score":2.174107,"population":3993,"purchasing_power_total":366495623,"edu_formal":17,"residential":26,"hospital":3,"recommendation_arin_ndbi":"NO","ses_abc":"B"},"geometry":{"type":"Polygon","coordinates":[[[106.85709822667036,-6.644590576999955],[106.85709822667036,-6.599590576999955],[106.81812708350006,-6.5770905769999555],[106.77915594032976,-6.599590576999955],[106.77915594032976,-6.644590576999955],[106.81812708350006,-6.667090576999955],[106.85709822667036,-6.644590576999955]]]}},{"type":"Feature","properties":{"grid_id":"H0032","name":"Hex Demo 32","manual_score":2.014401,"population":751,"purchasing_power_total":345726600,"edu_formal":18,"residential":16,"hospital":2,"recommendation_arin_ndbi":"NO","ses_abc":"B"},"geometry":{"type":"Polygon","coordinates":[[[106.93504051301096,-6.644590576999955],[106.93504051301096,-6.599590576999955],[106.89606936984066,-6.5770905769999555],[106.85709822667036,-6.599590576999955],[106.85709822667036,-6.644590576999955],[106.89606936984066,-6.667090576999955],[106.93504051301096,-6.644590576999955]]]}},{"type":"Feature","properties":{"grid_id":"H0033","name":"Hex Demo 33","manual_score":4.942078,"population":4196,"purchasing_power_total":112921958,"edu_formal":10,"residential":28,"hospital":1,"recommendation_arin_ndbi":"YES","ses_abc":"C"},"geometry":{"type":"Polygon","coordinates":[[[107.01298279935156,-6.644590576999955],[107.01298279935156,-6.599590576999955],[106.97401165618126,-6.5770905769999555],[106.93504051301096,-6.599590576999955],[106.93504051301096,-6.644590576999955],[106.97401165618126,-6.667090576999955],[107.01298279935156,-6.644590576999955]]]}},{"type":"Feature","properties":{"grid_id":"H0034","name":"Hex Demo 34","manual_score":3.328765,"population":802,"purchasing_power_total":215340425,"edu_formal":19,"residential":9,"hospital":2,"recommendation_arin_ndbi":"NO","ses_abc":"C"},"geometry":{"type":"Polygon","coordinates":[[[107.09092508569216,-6.644590576999955],[107.09092508569216,-6.599590576999955],[107.05195394252186,-6.5770905769999555],[107.01298279935156,-6.599590576999955],[107.01298279935156,-6.644590576999955],[107.05195394252186,-6.667090576999955],[107.09092508569216,-6.644590576999955]]]}},{"type":"Feature","properties":{"grid_id":"H0035","name":"Hex Demo 35","manual_score":4.123543,"population":3354,"purchasing_power_total":134737918,"edu_formal":3,"residential":11,"hospital":3,"recommendation_arin_ndbi":"YES","ses_abc":"A"},"geometry":{"type":"Polygon","coordinates":[[[107.16886737203276,-6.644590576999955],[107.16886737203276,-6.599590576999955],[107.12989622886246,-6.5770905769999555],[107.09092508569216,-6.599590576999955],[107.09092508569216,-6.644590576999955],[107.12989622886246,-6.667090576999955],[107.16886737203276,-6.644590576999955]]]}},{"type":"Feature","properties":{"grid_id":"H0036","name":"Hex Demo 36","manual_score":2.686867,"population":1835,"purchasing_power_total":200758714,"edu_formal":3,"residential":7,"hospital":2,"recommendation_arin_ndbi":"NO","ses_abc":"A"},"geometry":{"type":"Polygon","coordinates":[[[107.24680965837335,-6.644590576999955],[107.24680965837335,-6.599590576999955],[107.20783851520305,-6.5770905769999555],[107.16886737203275,-6.599590576999955],[107.16886737203275,-6.644590576999955],[107.20783851520305,-6.667090576999955],[107.24680965837335,-6.644590576999955]]]}},{"type":"Feature","properties":{"grid_id":"H0037","name":"Hex Demo 37","manual_score":1.998151,"population":767,"purchasing_power_total":99748562,"edu_formal":11,"residential":19,"hospital":3,"recommendation_arin_ndbi":"NO","ses_abc":"C"},"geometry":{"type":"Polygon","coordinates":[[[107.32475194471395,-6.644590576999955],[107.32475194471395,-6.599590576999955],[107.28578080154365,-6.5770905769999555],[107.24680965837335,-6.599590576999955],[107.24680965837335,-6.644590576999955],[107.28578080154365,-6.667090576999955],[107.32475194471395,-6.644590576999955]]]}},{"type":"Feature","properties":{"grid_id":"H0038","name":"Hex Demo 38","manual_score":1.41955,"population":2556,"purchasing_power_total":494956219,"edu_formal":3,"residential":2,"hospital":3,"recommendation_arin_ndbi":"NO","ses_abc":"A"},"geometry":{"type":"Polygon","coordinates":[[[106.42841565179707,-6.5770905769999555],[106.42841565179707,-6.5320905769999555],[106.38944450862677,-6.509590576999956],[106.35047336545647,-6.5320905769999555],[106.35047336545647,-6.5770905769999555],[106.38944450862677,-6.599590576999955],[106.42841565179707,-6.5770905769999555]]]}},{"type":"Feature","properties":{"grid_id":"H0039","name":"Hex Demo 39","manual_score":2.845802,"population":419,"purchasing_power_total":174193098,"edu_formal":15,"residential":2,"hospital":5,"recommendation_arin_ndbi":"NO","ses_abc":"A"},"geometry":{"type":"Polygon","coordinates":[[[106.50635793813767,-6.5770905769999555],[106.50635793813767,-6.5320905769999555],[106.46738679496737,-6.509590576999956],[106.42841565179707,-6.5320905769999555],[106.42841565179707,-6.5770905769999555],[106.46738679496737,-6.599590576999955],[106.50635793813767,-6.5770905769999555]]]}},{"type":"Feature","properties":{"grid_id":"H0040","name":"Hex Demo 40","manual_score":2.819992,"population":4371,"purchasing_power_total":269306727,"edu_formal":17,"residential":26,"hospital":4,"recommendation_arin_ndbi":"NO","ses_abc":"A"},"geometry":{"type":"Polygon","coordinates":[[[106.58430022447826,-6.5770905769999555],[106.58430022447826,-6.5320905769999555],[106.54532908130795,-6.509590576999956],[106.50635793813765,-6.5320905769999555],[106.50635793813765,-6.5770905769999555],[106.54532908130795,-6.599590576999955],[106.58430022447826,-6.5770905769999555]]]}},{"type":"Feature","properties":{"grid_id":"H0041","name":"Hex Demo 41","manual_score":3.688143,"population":1460,"purchasing_power_total":151406507,"edu_formal":1,"residential":24,"hospital":5,"recommendation_arin_ndbi":"YES","ses_abc":"B"},"geometry":{"type":"Polygon","coordinates":[[[106.66224251081886,-6.5770905769999555],[106.66224251081886,-6.5320905769999555],[106.62327136764856,-6.509590576999956],[106.58430022447826,-6.5320905769999555],[106.58430022447826,-6.5770905769999555],[106.62327136764856,-6.599590576999955],[106.66224251081886,-6.5770905769999555]]]}},{"type":"Feature","properties":{"grid_id":"H0042","name":"Hex Demo 42","manual_score":1.003596,"population":4129,"purchasing_power_total":200741214,"edu_formal":6,"residential":14,"hospital":2,"recommendation_arin_ndbi":"NO","ses_abc":"C"},"geometry":{"type":"Polygon","coordinates":[[[106.74018479715946,-6.5770905769999555],[106.74018479715946,-6.5320905769999555],[106.70121365398916,-6.509590576999956],[106.66224251081886,-6.5320905769999555],[106.66224251081886,-6.5770905769999555],[106.70121365398916,-6.599590576999955],[106.74018479715946,-6.5770905769999555]]]}},{"type":"Feature","properties":{"grid_id":"H0043","name":"Hex Demo 43","manual_score":2.818189,"population":2148,"purchasing_power_total":48232436,"edu_formal":12,"residential":7,"hospital":4,"recommendation_arin_ndbi":"NO","ses_abc":"A"},"geometry":{"type":"Polygon","coordinates":[[[106.81812708350006,-6.5770905769999555],[106.81812708350006,-6.5320905769999555],[106.77915594032976,-6.509590576999956],[106.74018479715946,-6.5320905769999555],[106.74018479715946,-6.5770905769999555],[106.77915594032976,-6.599590576999955],[106.81812708350006,-6.5770905769999555]]]}},{"type":"Feature","properties":{"grid_id":"H0044","name":"Hex Demo 44","manual_score":4.292302,"population":2545,"purchasing_power_total":350024813,"edu_formal":13,"residential":13,"hospital":3,"recommendation_arin_ndbi":"YES","ses_abc":"C"},"geometry":{"type":"Polygon","coordinates":[[[106.89606936984066,-6.5770905769999555],[106.89606936984066,-6.5320905769999555],[106.85709822667036,-6.509590576999956],[106.81812708350006,-6.5320905769999555],[106.81812708350006,-6.5770905769999555],[106.85709822667036,-6.599590576999955],[106.89606936984066,-6.5770905769999555]]]}},{"type":"Feature","properties":{"grid_id":"H0045","name":"Hex Demo 45","manual_score":3.664584,"population":672,"purchasing_power_total":318883012,"edu_formal":12,"residential":10,"hospital":2,"recommendation_arin_ndbi":"YES","ses_abc":"A"},"geometry":{"type":"Polygon","coordinates":[[[106.97401165618126,-6.5770905769999555],[106.97401165618126,-6.5320905769999555],[106.93504051301096,-6.509590576999956],[106.89606936984066,-6.5320905769999555],[106.89606936984066,-6.5770905769999555],[106.93504051301096,-6.599590576999955],[106.97401165618126,-6.5770905769999555]]]}},{"type":"Feature","properties":{"grid_id":"H0046","name":"Hex Demo 46","manual_score":3.356602,"population":165,"purchasing_power_total":445278137,"edu_formal":18,"residential":11,"hospital":1,"recommendation_arin_ndbi":"NO","ses_abc":"B"},"geometry":{"type":"Polygon","coordinates":[[[107.05195394252186,-6.5770905769999555],[107.05195394252186,-6.5320905769999555],[107.01298279935156,-6.509590576999956],[106.97401165618126,-6.5320905769999555],[106.97401165618126,-6.5770905769999555],[107.01298279935156,-6.599590576999955],[107.05195394252186,-6.5770905769999555]]]}},{"type":"Feature","properties":{"grid_id":"H0047","name":"Hex Demo 47","manual_score":1.15402,"population":4961,"purchasing_power_total":329863690,"edu_formal":18,"residential":24,"hospital":4,"recommendation_arin_ndbi":"NO","ses_abc":"A"},"geometry":{"type":"Polygon","coordinates":[[[107.12989622886246,-6.5770905769999555],[107.12989622886246,-6.5320905769999555],[107.09092508569216,-6.509590576999956],[107.05195394252186,-6.5320905769999555],[107.05195394252186,-6.5770905769999555],[107.09092508569216,-6.599590576999955],[107.12989622886246,-6.5770905769999555]]]}},{"type":"Feature","properties":{"grid_id":"H0048","name":"Hex Demo 48","manual_score":1.88815,"population":1114,"purchasing_power_total":209928835,"edu_formal":10,"residential":11,"hospital":1,"recommendation_arin_ndbi":"NO","ses_abc":"C"},"geometry":{"type":"Polygon","coordinates":[[[107.20783851520305,-6.5770905769999555],[107.20783851520305,-6.5320905769999555],[107.16886737203275,-6.509590576999956],[107.12989622886245,-6.5320905769999555],[107.12989622886245,-6.5770905769999555],[107.16886737203275,-6.599590576999955],[107.20783851520305,-6.5770905769999555]]]}},{"type":"Feature","properties":{"grid_id":"H0049","name":"Hex Demo 49","manual_score":4.101186,"population":2630,"purchasing_power_total":385903389,"edu_formal":11,"residential":5,"hospital":2,"recommendation_arin_ndbi":"YES","ses_abc":"A"},"geometry":{"type":"Polygon","coordinates":[[[107.28578080154365,-6.5770905769999555],[107.28578080154365,-6.5320905769999555],[107.24680965837335,-6.509590576999956],[107.20783851520305,-6.5320905769999555],[107.20783851520305,-6.5770905769999555],[107.24680965837335,-6.599590576999955],[107.28578080154365,-6.5770905769999555]]]}},{"type":"Feature","properties":{"grid_id":"H0050","name":"Hex Demo 50","manual_score":2.087713,"population":4418,"purchasing_power_total":277771244,"edu_formal":12,"residential":19,"hospital":4,"recommendation_arin_ndbi":"NO","ses_abc":"A"},"geometry":{"type":"Polygon","coordinates":[[[106.38944450862677,-6.509590576999956],[106.38944450862677,-6.464590576999956],[106.35047336545647,-6.442090576999956],[106.31150222228617,-6.464590576999956],[106.31150222228617,-6.509590576999956],[106.35047336545647,-6.5320905769999555],[106.38944450862677,-6.509590576999956]]]}},{"type":"Feature","properties":{"grid_id":"H0051","name":"Hex Demo 51","manual_score":4.284409,"population":640,"purchasing_power_total":325258752,"edu_formal":17,"residential":14,"hospital":0,"recommendation_arin_ndbi":"YES","ses_abc":"B"},"geometry":{"type":"Polygon","coordinates":[[[106.46738679496737,-6.509590576999956],[106.46738679496737,-6.464590576999956],[106.42841565179707,-6.442090576999956],[106.38944450862677,-6.464590576999956],[106.38944450862677,-6.509590576999956],[106.42841565179707,-6.5320905769999555],[106.46738679496737,-6.509590576999956]]]}},{"type":"Feature","properties":{"grid_id":"H0052","name":"Hex Demo 52","manual_score":4.526276,"population":3976,"purchasing_power_total":20441122,"edu_formal":16,"residential":22,"hospital":2,"recommendation_arin_ndbi":"YES","ses_abc":"B"},"geometry":{"type":"Polygon","coordinates":[[[106.54532908130795,-6.509590576999956],[106.54532908130795,-6.464590576999956],[106.50635793813765,-6.442090576999956],[106.46738679496735,-6.464590576999956],[106.46738679496735,-6.509590576999956],[106.50635793813765,-6.5320905769999555],[106.54532908130795,-6.509590576999956]]]}},{"type":"Feature","properties":{"grid_id":"H0053","name":"Hex Demo 53","manual_score":4.742315,"population":4140,"purchasing_power_total":236272887,"edu_formal":15,"residential":21,"hospital":2,"recommendation_arin_ndbi":"YES","ses_abc":"C"},"geometry":{"type":"Polygon","coordinates":[[[106.62327136764856,-6.509590576999956],[106.62327136764856,-6.464590576999956],[106.58430022447826,-6.442090576999956],[106.54532908130795,-6.464590576999956],[106.54532908130795,-6.509590576999956],[106.58430022447826,-6.5320905769999555],[106.62327136764856,-6.509590576999956]]]}},{"type":"Feature","properties":{"grid_id":"H0054","name":"Hex Demo 54","manual_score":1.317155,"population":533,"purchasing_power_total":85267970,"edu_formal":8,"residential":29,"hospital":4,"recommendation_arin_ndbi":"NO","ses_abc":"C"},"geometry":{"type":"Polygon","coordinates":[[[106.70121365398916,-6.509590576999956],[106.70121365398916,-6.464590576999956],[106.66224251081886,-6.442090576999956],[106.62327136764856,-6.464590576999956],[106.62327136764856,-6.509590576999956],[106.66224251081886,-6.5320905769999555],[106.70121365398916,-6.509590576999956]]]}},{"type":"Feature","properties":{"grid_id":"H0055","name":"Hex Demo 55","manual_score":2.564704,"population":2006,"purchasing_power_total":399919379,"edu_formal":2,"residential":30,"hospital":3,"recommendation_arin_ndbi":"NO","ses_abc":"A"},"geometry":{"type":"Polygon","coordinates":[[[106.77915594032976,-6.509590576999956],[106.77915594032976,-6.464590576999956],[106.74018479715946,-6.442090576999956],[106.70121365398916,-6.464590576999956],[106.70121365398916,-6.509590576999956],[106.74018479715946,-6.5320905769999555],[106.77915594032976,-6.509590576999956]]]}},{"type":"Feature","properties":{"grid_id":"H0056","name":"Hex Demo 56","manual_score":2.306409,"population":2479,"purchasing_power_total":350625492,"edu_formal":14,"residential":14,"hospital":4,"recommendation_arin_ndbi":"NO","ses_abc":"C"},"geometry":{"type":"Polygon","coordinates":[[[106.85709822667036,-6.509590576999956],[106.85709822667036,-6.464590576999956],[106.81812708350006,-6.442090576999956],[106.77915594032976,-6.464590576999956],[106.77915594032976,-6.509590576999956],[106.81812708350006,-6.5320905769999555],[106.85709822667036,-6.509590576999956]]]}},{"type":"Feature","properties":{"grid_id":"H0057","name":"Hex Demo 57","manual_score":3.389358,"population":4262,"purchasing_power_total":78058624,"edu_formal":6,"residential":12,"hospital":2,"recommendation_arin_ndbi":"NO","ses_abc":"B"},"geometry":{"type":"Polygon","coordinates":[[[106.93504051301096,-6.509590576999956],[106.93504051301096,-6.464590576999956],[106.89606936984066,-6.442090576999956],[106.85709822667036,-6.464590576999956],[106.85709822667036,-6.509590576999956],[106.89606936984066,-6.5320905769999555],[106.93504051301096,-6.509590576999956]]]}},{"type":"Feature","properties":{"grid_id":"H0058","name":"Hex Demo 58","manual_score":1.582563,"population":2682,"purchasing_power_total":72233709,"edu_formal":16,"residential":2,"hospital":2,"recommendation_arin_ndbi":"NO","ses_abc":"C"},"geometry":{"type":"Polygon","coordinates":[[[107.01298279935156,-6.509590576999956],[107.01298279935156,-6.464590576999956],[106.97401165618126,-6.442090576999956],[106.93504051301096,-6.464590576999956],[106.93504051301096,-6.509590576999956],[106.97401165618126,-6.5320905769999555],[107.01298279935156,-6.509590576999956]]]}},{"type":"Feature","properties":{"grid_id":"H0059","name":"Hex Demo 59","manual_score":4.528196,"population":1563,"purchasing_power_total":229039655,"edu_formal":7,"residential":21,"hospital":0,"recommendation_arin_ndbi":"YES","ses_abc":"C"},"geometry":{"type":"Polygon","coordinates":[[[107.09092508569216,-6.509590576999956],[107.09092508569216,-6.464590576999956],[107.05195394252186,-6.442090576999956],[107.01298279935156,-6.464590576999956],[107.01298279935156,-6.509590576999956],[107.05195394252186,-6.5320905769999555],[107.09092508569216,-6.509590576999956]]]}},{"type":"Feature","properties":{"grid_id":"H0060","name":"Hex Demo 60","manual_score":4.540079,"population":2734,"purchasing_power_total":206449330,"edu_formal":1,"residential":9,"hospital":3,"recommendation_arin_ndbi":"YES","ses_abc":"C"},"geometry":{"type":"Polygon","coordinates":[[[107.16886737203276,-6.509590576999956],[107.16886737203276,-6.464590576999956],[107.12989622886246,-6.442090576999956],[107.09092508569216,-6.464590576999956],[107.09092508569216,-6.509590576999956],[107.12989622886246,-6.5320905769999555],[107.16886737203276,-6.509590576999956]]]}},{"type":"Feature","properties":{"grid_id":"H0061","name":"Hex Demo 61","manual_score":4.984749,"population":210,"purchasing_power_total":403799726,"edu_formal":16,"residential":8,"hospital":0,"recommendation_arin_ndbi":"YES","ses_abc":"B"},"geometry":{"type":"Polygon","coordinates":[[[107.24680965837335,-6.509590576999956],[107.24680965837335,-6.464590576999956],[107.20783851520305,-6.442090576999956],[107.16886737203275,-6.464590576999956],[107.16886737203275,-6.509590576999956],[107.20783851520305,-6.5320905769999555],[107.24680965837335,-6.509590576999956]]]}},{"type":"Feature","properties":{"grid_id":"H0062","name":"Hex Demo 62","manual_score":3.131839,"population":4743,"purchasing_power_total":380668087,"edu_formal":0,"residential":23,"hospital":1,"recommendation_arin_ndbi":"NO","ses_abc":"C"},"geometry":{"type":"Polygon","coordinates":[[[107.32475194471395,-6.509590576999956],[107.32475194471395,-6.464590576999956],[107.28578080154365,-6.442090576999956],[107.24680965837335,-6.464590576999956],[107.24680965837335,-6.509590576999956],[107.28578080154365,-6.5320905769999555],[107.32475194471395,-6.509590576999956]]]}},{"type":"Feature","properties":{"grid_id":"H0063","name":"Hex Demo 63","manual_score":4.154354,"population":2963,"purchasing_power_total":415681514,"edu_formal":8,"residential":7,"hospital":2,"recommendation_arin_ndbi":"YES","ses_abc":"B"},"geometry":{"type":"Polygon","coordinates":[[[106.42841565179707,-6.442090576999956],[106.42841565179707,-6.397090576999956],[106.38944450862677,-6.374590576999956],[106.35047336545647,-6.397090576999956],[106.35047336545647,-6.442090576999956],[106.38944450862677,-6.464590576999956],[106.42841565179707,-6.442090576999956]]]}},{"type":"Feature","properties":{"grid_id":"H0064","name":"Hex Demo 64","manual_score":4.754685,"population":978,"purchasing_power_total":361860960,"edu_formal":4,"residential":10,"hospital":3,"recommendation_arin_ndbi":"YES","ses_abc":"B"},"geometry":{"type":"Polygon","coordinates":[[[106.50635793813767,-6.442090576999956],[106.50635793813767,-6.397090576999956],[106.46738679496737,-6.374590576999956],[106.42841565179707,-6.397090576999956],[106.42841565179707,-6.442090576999956],[106.46738679496737,-6.464590576999956],[106.50635793813767,-6.442090576999956]]]}},{"type":"Feature","properties":{"grid_id":"H0065","name":"Hex Demo 65","manual_score":1.267068,"population":4942,"purchasing_power_total":3722485,"edu_formal":16,"residential":0,"hospital":3,"recommendation_arin_ndbi":"NO","ses_abc":"A"},"geometry":{"type":"Polygon","coordinates":[[[106.58430022447826,-6.442090576999956],[106.58430022447826,-6.397090576999956],[106.54532908130795,-6.374590576999956],[106.50635793813765,-6.397090576999956],[106.50635793813765,-6.442090576999956],[106.54532908130795,-6.464590576999956],[106.58430022447826,-6.442090576999956]]]}},{"type":"Feature","properties":{"grid_id":"H0066","name":"Hex Demo 66","manual_score":2.70753,"population":54,"purchasing_power_total":437245768,"edu_formal":15,"residential":16,"hospital":3,"recommendation_arin_ndbi":"NO","ses_abc":"B"},"geometry":{"type":"Polygon","coordinates":[[[106.66224251081886,-6.442090576999956],[106.66224251081886,-6.397090576999956],[106.62327136764856,-6.374590576999956],[106.58430022447826,-6.397090576999956],[106.58430022447826,-6.442090576999956],[106.62327136764856,-6.464590576999956],[106.66224251081886,-6.442090576999956]]]}},{"type":"Feature","properties":{"grid_id":"H0067","name":"Hex Demo 67","manual_score":1.197142,"population":3776,"purchasing_power_total":2532113,"edu_formal":13,"residential":19,"hospital":1,"recommendation_arin_ndbi":"NO","ses_abc":"A"},"geometry":{"type":"Polygon","coordinates":[[[106.74018479715946,-6.442090576999956],[106.74018479715946,-6.397090576999956],[106.70121365398916,-6.374590576999956],[106.66224251081886,-6.397090576999956],[106.66224251081886,-6.442090576999956],[106.70121365398916,-6.464590576999956],[106.74018479715946,-6.442090576999956]]]}},{"type":"Feature","properties":{"grid_id":"H0068","name":"Hex Demo 68","manual_score":3.44092,"population":851,"purchasing_power_total":462490997,"edu_formal":16,"residential":17,"hospital":0,"recommendation_arin_ndbi":"NO","ses_abc":"A"},"geometry":{"type":"Polygon","coordinates":[[[106.81812708350006,-6.442090576999956],[106.81812708350006,-6.397090576999956],[106.77915594032976,-6.374590576999956],[106.74018479715946,-6.397090576999956],[106.74018479715946,-6.442090576999956],[106.77915594032976,-6.464590576999956],[106.81812708350006,-6.442090576999956]]]}},{"type":"Feature","properties":{"grid_id":"H0069","name":"Hex Demo 69","manual_score":4.587468,"population":1005,"purchasing_power_total":378445213,"edu_formal":17,"residential":20,"hospital":0,"recommendation_arin_ndbi":"YES","ses_abc":"A"},"geometry":{"type":"Polygon","coordinates":[[[106.89606936984066,-6.442090576999956],[106.89606936984066,-6.397090576999956],[106.85709822667036,-6.374590576999956],[106.81812708350006,-6.397090576999956],[106.81812708350006,-6.442090576999956],[106.85709822667036,-6.464590576999956],[106.89606936984066,-6.442090576999956]]]}},{"type":"Feature","properties":{"grid_id":"H0070","name":"Hex Demo 70","manual_score":4.396555,"population":4528,"purchasing_power_total":92956011,"edu_formal":11,"residential":9,"hospital":0,"recommendation_arin_ndbi":"YES","ses_abc":"B"},"geometry":{"type":"Polygon","coordinates":[[[106.97401165618126,-6.442090576999956],[106.97401165618126,-6.397090576999956],[106.93504051301096,-6.374590576999956],[106.89606936984066,-6.397090576999956],[106.89606936984066,-6.442090576999956],[106.93504051301096,-6.464590576999956],[106.97401165618126,-6.442090576999956]]]}},{"type":"Feature","properties":{"grid_id":"H0071","name":"Hex Demo 71","manual_score":4.210143,"population":4810,"purchasing_power_total":84201340,"edu_formal":6,"residential":16,"hospital":3,"recommendation_arin_ndbi":"YES","ses_abc":"C"},"geometry":{"type":"Polygon","coordinates":[[[107.05195394252186,-6.442090576999956],[107.05195394252186,-6.397090576999956],[107.01298279935156,-6.374590576999956],[106.97401165618126,-6.397090576999956],[106.97401165618126,-6.442090576999956],[107.01298279935156,-6.464590576999956],[107.05195394252186,-6.442090576999956]]]}},{"type":"Feature","properties":{"grid_id":"H0072","name":"Hex Demo 72","manual_score":1.011529,"population":3645,"purchasing_power_total":83666716,"edu_formal":14,"residential":5,"hospital":1,"recommendation_arin_ndbi":"NO","ses_abc":"C"},"geometry":{"type":"Polygon","coordinates":[[[107.12989622886246,-6.442090576999956],[107.12989622886246,-6.397090576999956],[107.09092508569216,-6.374590576999956],[107.05195394252186,-6.397090576999956],[107.05195394252186,-6.442090576999956],[107.09092508569216,-6.464590576999956],[107.12989622886246,-6.442090576999956]]]}},{"type":"Feature","properties":{"grid_id":"H0073","name":"Hex Demo 73","manual_score":1.77049,"population":2089,"purchasing_power_total":456486369,"edu_formal":18,"residential":8,"hospital":2,"recommendation_arin_ndbi":"NO","ses_abc":"A"},"geometry":{"type":"Polygon","coordinates":[[[107.20783851520305,-6.442090576999956],[107.20783851520305,-6.397090576999956],[107.16886737203275,-6.374590576999956],[107.12989622886245,-6.397090576999956],[107.12989622886245,-6.442090576999956],[107.16886737203275,-6.464590576999956],[107.20783851520305,-6.442090576999956]]]}},{"type":"Feature","properties":{"grid_id":"H0074","name":"Hex Demo 74","manual_score":2.858606,"population":2968,"purchasing_power_total":434731081,"edu_formal":2,"residential":18,"hospital":2,"recommendation_arin_ndbi":"NO","ses_abc":"B"},"geometry":{"type":"Polygon","coordinates":[[[107.28578080154365,-6.442090576999956],[107.28578080154365,-6.397090576999956],[107.24680965837335,-6.374590576999956],[107.20783851520305,-6.397090576999956],[107.20783851520305,-6.442090576999956],[107.24680965837335,-6.464590576999956],[107.28578080154365,-6.442090576999956]]]}},{"type":"Feature","properties":{"grid_id":"H0075","name":"Hex Demo 75","manual_score":3.945855,"population":2526,"purchasing_power_total":460986246,"edu_formal":12,"residential":24,"hospital":2,"recommendation_arin_ndbi":"YES","ses_abc":"C"},"geometry":{"type":"Polygon","coordinates":[[[106.38944450862677,-6.374590576999956],[106.38944450862677,-6.329590576999956],[106.35047336545647,-6.307090576999956],[106.31150222228617,-6.329590576999956],[106.31150222228617,-6.374590576999956],[106.35047336545647,-6.397090576999956],[106.38944450862677,-6.374590576999956]]]}},{"type":"Feature","properties":{"grid_id":"H0076","name":"Hex Demo 76","manual_score":2.756698,"population":298,"purchasing_power_total":249271810,"edu_formal":10,"residential":1,"hospital":5,"recommendation_arin_ndbi":"NO","ses_abc":"C"},"geometry":{"type":"Polygon","coordinates":[[[106.46738679496737,-6.374590576999956],[106.46738679496737,-6.329590576999956],[106.42841565179707,-6.307090576999956],[106.38944450862677,-6.329590576999956],[106.38944450862677,-6.374590576999956],[106.42841565179707,-6.397090576999956],[106.46738679496737,-6.374590576999956]]]}},{"type":"Feature","properties":{"grid_id":"H0077","name":"Hex Demo 77","manual_score":3.391859,"population":4449,"purchasing_power_total":469196948,"edu_formal":2,"residential":15,"hospital":2,"recommendation_arin_ndbi":"NO","ses_abc":"A"},"geometry":{"type":"Polygon","coordinates":[[[106.54532908130795,-6.374590576999956],[106.54532908130795,-6.329590576999956],[106.50635793813765,-6.307090576999956],[106.46738679496735,-6.329590576999956],[106.46738679496735,-6.374590576999956],[106.50635793813765,-6.397090576999956],[106.54532908130795,-6.374590576999956]]]}},{"type":"Feature","properties":{"grid_id":"H0078","name":"Hex Demo 78","manual_score":2.920295,"population":2776,"purchasing_power_total":46723001,"edu_formal":11,"residential":6,"hospital":0,"recommendation_arin_ndbi":"NO","ses_abc":"C"},"geometry":{"type":"Polygon","coordinates":[[[106.62327136764856,-6.374590576999956],[106.62327136764856,-6.329590576999956],[106.58430022447826,-6.307090576999956],[106.54532908130795,-6.329590576999956],[106.54532908130795,-6.374590576999956],[106.58430022447826,-6.397090576999956],[106.62327136764856,-6.374590576999956]]]}},{"type":"Feature","properties":{"grid_id":"H0079","name":"Hex Demo 79","manual_score":1.538716,"population":3302,"purchasing_power_total":411849400,"edu_formal":7,"residential":22,"hospital":4,"recommendation_arin_ndbi":"NO","ses_abc":"A"},"geometry":{"type":"Polygon","coordinates":[[[106.70121365398916,-6.374590576999956],[106.70121365398916,-6.329590576999956],[106.66224251081886,-6.307090576999956],[106.62327136764856,-6.329590576999956],[106.62327136764856,-6.374590576999956],[106.66224251081886,-6.397090576999956],[106.70121365398916,-6.374590576999956]]]}},{"type":"Feature","properties":{"grid_id":"H0080","name":"Hex Demo 80","manual_score":4.90643,"population":3452,"purchasing_power_total":206599423,"edu_formal":15,"residential":28,"hospital":5,"recommendation_arin_ndbi":"YES","ses_abc":"A"},"geometry":{"type":"Polygon","coordinates":[[[106.77915594032976,-6.374590576999956],[106.77915594032976,-6.329590576999956],[106.74018479715946,-6.307090576999956],[106.70121365398916,-6.329590576999956],[106.70121365398916,-6.374590576999956],[106.74018479715946,-6.397090576999956],[106.77915594032976,-6.374590576999956]]]}},{"type":"Feature","properties":{"grid_id":"H0081","name":"Hex Demo 81","manual_score":3.671827,"population":1712,"purchasing_power_total":207954382,"edu_formal":19,"residential":0,"hospital":3,"recommendation_arin_ndbi":"YES","ses_abc":"C"},"geometry":{"type":"Polygon","coordinates":[[[106.85709822667036,-6.374590576999956],[106.85709822667036,-6.329590576999956],[106.81812708350006,-6.307090576999956],[106.77915594032976,-6.329590576999956],[106.77915594032976,-6.374590576999956],[106.81812708350006,-6.397090576999956],[106.85709822667036,-6.374590576999956]]]}},{"type":"Feature","properties":{"grid_id":"H0082","name":"Hex Demo 82","manual_score":3.783576,"population":727,"purchasing_power_total":205275585,"edu_formal":5,"residential":7,"hospital":5,"recommendation_arin_ndbi":"YES","ses_abc":"A"},"geometry":{"type":"Polygon","coordinates":[[[106.93504051301096,-6.374590576999956],[106.93504051301096,-6.329590576999956],[106.89606936984066,-6.307090576999956],[106.85709822667036,-6.329590576999956],[106.85709822667036,-6.374590576999956],[106.89606936984066,-6.397090576999956],[106.93504051301096,-6.374590576999956]]]}},{"type":"Feature","properties":{"grid_id":"H0083","name":"Hex Demo 83","manual_score":3.938996,"population":103,"purchasing_power_total":49301602,"edu_formal":10,"residential":3,"hospital":5,"recommendation_arin_ndbi":"YES","ses_abc":"C"},"geometry":{"type":"Polygon","coordinates":[[[107.01298279935156,-6.374590576999956],[107.01298279935156,-6.329590576999956],[106.97401165618126,-6.307090576999956],[106.93504051301096,-6.329590576999956],[106.93504051301096,-6.374590576999956],[106.97401165618126,-6.397090576999956],[107.01298279935156,-6.374590576999956]]]}},{"type":"Feature","properties":{"grid_id":"H0084","name":"Hex Demo 84","manual_score":4.757019,"population":1889,"purchasing_power_total":288755358,"edu_formal":3,"residential":16,"hospital":5,"recommendation_arin_ndbi":"YES","ses_abc":"B"},"geometry":{"type":"Polygon","coordinates":[[[107.09092508569216,-6.374590576999956],[107.09092508569216,-6.329590576999956],[107.05195394252186,-6.307090576999956],[107.01298279935156,-6.329590576999956],[107.01298279935156,-6.374590576999956],[107.05195394252186,-6.397090576999956],[107.09092508569216,-6.374590576999956]]]}},{"type":"Feature","properties":{"grid_id":"H0085","name":"Hex Demo 85","manual_score":2.408323,"population":1344,"purchasing_power_total":274364327,"edu_formal":2,"residential":11,"hospital":4,"recommendation_arin_ndbi":"NO","ses_abc":"C"},"geometry":{"type":"Polygon","coordinates":[[[107.16886737203276,-6.374590576999956],[107.16886737203276,-6.329590576999956],[107.12989622886246,-6.307090576999956],[107.09092508569216,-6.329590576999956],[107.09092508569216,-6.374590576999956],[107.12989622886246,-6.397090576999956],[107.16886737203276,-6.374590576999956]]]}},{"type":"Feature","properties":{"grid_id":"H0086","name":"Hex Demo 86","manual_score":3.932307,"population":3176,"purchasing_power_total":51899255,"edu_formal":10,"residential":26,"hospital":5,"recommendation_arin_ndbi":"YES","ses_abc":"B"},"geometry":{"type":"Polygon","coordinates":[[[107.24680965837335,-6.374590576999956],[107.24680965837335,-6.329590576999956],[107.20783851520305,-6.307090576999956],[107.16886737203275,-6.329590576999956],[107.16886737203275,-6.374590576999956],[107.20783851520305,-6.397090576999956],[107.24680965837335,-6.374590576999956]]]}},{"type":"Feature","properties":{"grid_id":"H0087","name":"Hex Demo 87","manual_score":3.005326,"population":1661,"purchasing_power_total":156067527,"edu_formal":17,"residential":25,"hospital":2,"recommendation_arin_ndbi":"NO","ses_abc":"B"},"geometry":{"type":"Polygon","coordinates":[[[107.32475194471395,-6.374590576999956],[107.32475194471395,-6.329590576999956],[107.28578080154365,-6.307090576999956],[107.24680965837335,-6.329590576999956],[107.24680965837335,-6.374590576999956],[107.28578080154365,-6.397090576999956],[107.32475194471395,-6.374590576999956]]]}},{"type":"Feature","properties":{"grid_id":"H0088","name":"Hex Demo 88","manual_score":2.726815,"population":519,"purchasing_power_total":33985460,"edu_formal":16,"residential":8,"hospital":0,"recommendation_arin_ndbi":"NO","ses_abc":"C"},"geometry":{"type":"Polygon","coordinates":[[[106.42841565179707,-6.307090576999956],[106.42841565179707,-6.262090576999956],[106.38944450862677,-6.239590576999956],[106.35047336545647,-6.262090576999956],[106.35047336545647,-6.307090576999956],[106.38944450862677,-6.329590576999956],[106.42841565179707,-6.307090576999956]]]}},{"type":"Feature","properties":{"grid_id":"H0089","name":"Hex Demo 89","manual_score":3.864994,"population":461,"purchasing_power_total":284006667,"edu_formal":1,"residential":12,"hospital":0,"recommendation_arin_ndbi":"YES","ses_abc":"A"},"geometry":{"type":"Polygon","coordinates":[[[106.50635793813767,-6.307090576999956],[106.50635793813767,-6.262090576999956],[106.46738679496737,-6.239590576999956],[106.42841565179707,-6.262090576999956],[106.42841565179707,-6.307090576999956],[106.46738679496737,-6.329590576999956],[106.50635793813767,-6.307090576999956]]]}},{"type":"Feature","properties":{"grid_id":"H0090","name":"Hex Demo 90","manual_score":1.723198,"population":2416,"purchasing_power_total":147307284,"edu_formal":16,"residential":17,"hospital":4,"recommendation_arin_ndbi":"NO","ses_abc":"A"},"geometry":{"type":"Polygon","coordinates":[[[106.58430022447826,-6.307090576999956],[106.58430022447826,-6.262090576999956],[106.54532908130795,-6.239590576999956],[106.50635793813765,-6.262090576999956],[106.50635793813765,-6.307090576999956],[106.54532908130795,-6.329590576999956],[106.58430022447826,-6.307090576999956]]]}},{"type":"Feature","properties":{"grid_id":"H0091","name":"Hex Demo 91","manual_score":2.504733,"population":4700,"purchasing_power_total":456214873,"edu_formal":4,"residential":8,"hospital":4,"recommendation_arin_ndbi":"NO","ses_abc":"A"},"geometry":{"type":"Polygon","coordinates":[[[106.66224251081886,-6.307090576999956],[106.66224251081886,-6.262090576999956],[106.62327136764856,-6.239590576999956],[106.58430022447826,-6.262090576999956],[106.58430022447826,-6.307090576999956],[106.62327136764856,-6.329590576999956],[106.66224251081886,-6.307090576999956]]]}},{"type":"Feature","properties":{"grid_id":"H0092","name":"Hex Demo 92","manual_score":4.877512,"population":470,"purchasing_power_total":484697407,"edu_formal":12,"residential":0,"hospital":4,"recommendation_arin_ndbi":"YES","ses_abc":"B"},"geometry":{"type":"Polygon","coordinates":[[[106.74018479715946,-6.307090576999956],[106.74018479715946,-6.262090576999956],[106.70121365398916,-6.239590576999956],[106.66224251081886,-6.262090576999956],[106.66224251081886,-6.307090576999956],[106.70121365398916,-6.329590576999956],[106.74018479715946,-6.307090576999956]]]}},{"type":"Feature","properties":{"grid_id":"H0093","name":"Hex Demo 93","manual_score":1.532991,"population":4770,"purchasing_power_total":284531431,"edu_formal":6,"residential":9,"hospital":3,"recommendation_arin_ndbi":"NO","ses_abc":"A"},"geometry":{"type":"Polygon","coordinates":[[[106.81812708350006,-6.307090576999956],[106.81812708350006,-6.262090576999956],[106.77915594032976,-6.239590576999956],[106.74018479715946,-6.262090576999956],[106.74018479715946,-6.307090576999956],[106.77915594032976,-6.329590576999956],[106.81812708350006,-6.307090576999956]]]}},{"type":"Feature","properties":{"grid_id":"H0094","name":"Hex Demo 94","manual_score":1.216352,"population":2902,"purchasing_power_total":446314424,"edu_formal":10,"residential":3,"hospital":1,"recommendation_arin_ndbi":"NO","ses_abc":"A"},"geometry":{"type":"Polygon","coordinates":[[[106.89606936984066,-6.307090576999956],[106.89606936984066,-6.262090576999956],[106.85709822667036,-6.239590576999956],[106.81812708350006,-6.262090576999956],[106.81812708350006,-6.307090576999956],[106.85709822667036,-6.329590576999956],[106.89606936984066,-6.307090576999956]]]}},{"type":"Feature","properties":{"grid_id":"H0095","name":"Hex Demo 95","manual_score":4.310793,"population":1918,"purchasing_power_total":313879315,"edu_formal":5,"residential":3,"hospital":3,"recommendation_arin_ndbi":"YES","ses_abc":"A"},"geometry":{"type":"Polygon","coordinates":[[[106.97401165618126,-6.307090576999956],[106.97401165618126,-6.262090576999956],[106.93504051301096,-6.239590576999956],[106.89606936984066,-6.262090576999956],[106.89606936984066,-6.307090576999956],[106.93504051301096,-6.329590576999956],[106.97401165618126,-6.307090576999956]]]}},{"type":"Feature","properties":{"grid_id":"H0096","name":"Hex Demo 96","manual_score":2.179014,"population":3859,"purchasing_power_total":438014891,"edu_formal":11,"residential":11,"hospital":3,"recommendation_arin_ndbi":"NO","ses_abc":"B"},"geometry":{"type":"Polygon","coordinates":[[[107.05195394252186,-6.307090576999956],[107.05195394252186,-6.262090576999956],[107.01298279935156,-6.239590576999956],[106.97401165618126,-6.262090576999956],[106.97401165618126,-6.307090576999956],[107.01298279935156,-6.329590576999956],[107.05195394252186,-6.307090576999956]]]}},{"type":"Feature","properties":{"grid_id":"H0097","name":"Hex Demo 97","manual_score":3.515681,"population":4417,"purchasing_power_total":23983616,"edu_formal":17,"residential":15,"hospital":4,"recommendation_arin_ndbi":"YES","ses_abc":"A"},"geometry":{"type":"Polygon","coordinates":[[[107.12989622886246,-6.307090576999956],[107.12989622886246,-6.262090576999956],[107.09092508569216,-6.239590576999956],[107.05195394252186,-6.262090576999956],[107.05195394252186,-6.307090576999956],[107.09092508569216,-6.329590576999956],[107.12989622886246,-6.307090576999956]]]}},{"type":"Feature","properties":{"grid_id":"H0098","name":"Hex Demo 98","manual_score":1.336251,"population":3913,"purchasing_power_total":301407831,"edu_formal":19,"residential":19,"hospital":3,"recommendation_arin_ndbi":"NO","ses_abc":"C"},"geometry":{"type":"Polygon","coordinates":[[[107.20783851520305,-6.307090576999956],[107.20783851520305,-6.262090576999956],[107.16886737203275,-6.239590576999956],[107.12989622886245,-6.262090576999956],[107.12989622886245,-6.307090576999956],[107.16886737203275,-6.329590576999956],[107.20783851520305,-6.307090576999956]]]}},{"type":"Feature","properties":{"grid_id":"H0099","name":"Hex Demo 99","manual_score":1.182461,"population":3494,"purchasing_power_total":231495965,"edu_formal":20,"residential":24,"hospital":1,"recommendation_arin_ndbi":"NO","ses_abc":"A"},"geometry":{"type":"Polygon","coordinates":[[[107.28578080154365,-6.307090576999956],[107.28578080154365,-6.262090576999956],[107.24680965837335,-6.239590576999956],[107.20783851520305,-6.262090576999956],[107.20783851520305,-6.307090576999956],[107.24680965837335,-6.329590576999956],[107.28578080154365,-6.307090576999956]]]}},{"type":"Feature","properties":{"grid_id":"H0100","name":"Hex Demo 100","manual_score":1.564043,"population":4333,"purchasing_power_total":407032976,"edu_formal":8,"residential":2,"hospital":2,"recommendation_arin_ndbi":"NO","ses_abc":"C"},"geometry":{"type":"Polygon","coordinates":[[[106.38944450862677,-6.239590576999956],[106.38944450862677,-6.194590576999956],[106.35047336545647,-6.172090576999956],[106.31150222228617,-6.194590576999956],[106.31150222228617,-6.239590576999956],[106.35047336545647,-6.262090576999956],[106.38944450862677,-6.239590576999956]]]}},{"type":"Feature","properties":{"grid_id":"H0101","name":"Hex Demo 101","manual_score":1.998741,"population":4530,"purchasing_power_total":282283442,"edu_formal":6,"residential":29,"hospital":4,"recommendation_arin_ndbi":"NO","ses_abc":"A"},"geometry":{"type":"Polygon","coordinates":[[[106.46738679496737,-6.239590576999956],[106.46738679496737,-6.194590576999956],[106.42841565179707,-6.172090576999956],[106.38944450862677,-6.194590576999956],[106.38944450862677,-6.239590576999956],[106.42841565179707,-6.262090576999956],[106.46738679496737,-6.239590576999956]]]}},{"type":"Feature","properties":{"grid_id":"H0102","name":"Hex Demo 102","manual_score":3.54949,"population":3676,"purchasing_power_total":129434488,"edu_formal":1,"residential":21,"hospital":5,"recommendation_arin_ndbi":"YES","ses_abc":"C"},"geometry":{"type":"Polygon","coordinates":[[[106.54532908130795,-6.239590576999956],[106.54532908130795,-6.194590576999956],[106.50635793813765,-6.172090576999956],[106.46738679496735,-6.194590576999956],[106.46738679496735,-6.239590576999956],[106.50635793813765,-6.262090576999956],[106.54532908130795,-6.239590576999956]]]}},{"type":"Feature","properties":{"grid_id":"H0103","name":"Hex Demo 103","manual_score":1.329754,"population":23,"purchasing_power_total":470989638,"edu_formal":15,"residential":14,"hospital":0,"recommendation_arin_ndbi":"NO","ses_abc":"C"},"geometry":{"type":"Polygon","coordinates":[[[106.62327136764856,-6.239590576999956],[106.62327136764856,-6.194590576999956],[106.58430022447826,-6.172090576999956],[106.54532908130795,-6.194590576999956],[106.54532908130795,-6.239590576999956],[106.58430022447826,-6.262090576999956],[106.62327136764856,-6.239590576999956]]]}},{"type":"Feature","properties":{"grid_id":"H0104","name":"Hex Demo 104","manual_score":4.315917,"population":4925,"purchasing_power_total":204080597,"edu_formal":12,"residential":29,"hospital":5,"recommendation_arin_ndbi":"YES","ses_abc":"C"},"geometry":{"type":"Polygon","coordinates":[[[106.70121365398916,-6.239590576999956],[106.70121365398916,-6.194590576999956],[106.66224251081886,-6.172090576999956],[106.62327136764856,-6.194590576999956],[106.62327136764856,-6.239590576999956],[106.66224251081886,-6.262090576999956],[106.70121365398916,-6.239590576999956]]]}},{"type":"Feature","properties":{"grid_id":"H0105","name":"Hex Demo 105","manual_score":2.244427,"population":4370,"purchasing_power_total":276536352,"edu_formal":18,"residential":25,"hospital":0,"recommendation_arin_ndbi":"NO","ses_abc":"B"},"geometry":{"type":"Polygon","coordinates":[[[106.77915594032976,-6.239590576999956],[106.77915594032976,-6.194590576999956],[106.74018479715946,-6.172090576999956],[106.70121365398916,-6.194590576999956],[106.70121365398916,-6.239590576999956],[106.74018479715946,-6.262090576999956],[106.77915594032976,-6.239590576999956]]]}},{"type":"Feature","properties":{"grid_id":"H0106","name":"Hex Demo 106","manual_score":4.828112,"population":3981,"purchasing_power_total":469383169,"edu_formal":18,"residential":22,"hospital":3,"recommendation_arin_ndbi":"YES","ses_abc":"C"},"geometry":{"type":"Polygon","coordinates":[[[106.85709822667036,-6.239590576999956],[106.85709822667036,-6.194590576999956],[106.81812708350006,-6.172090576999956],[106.77915594032976,-6.194590576999956],[106.77915594032976,-6.239590576999956],[106.81812708350006,-6.262090576999956],[106.85709822667036,-6.239590576999956]]]}},{"type":"Feature","properties":{"grid_id":"H0107","name":"Hex Demo 107","manual_score":1.502837,"population":1259,"purchasing_power_total":84364074,"edu_formal":8,"residential":21,"hospital":1,"recommendation_arin_ndbi":"NO","ses_abc":"A"},"geometry":{"type":"Polygon","coordinates":[[[106.93504051301096,-6.239590576999956],[106.93504051301096,-6.194590576999956],[106.89606936984066,-6.172090576999956],[106.85709822667036,-6.194590576999956],[106.85709822667036,-6.239590576999956],[106.89606936984066,-6.262090576999956],[106.93504051301096,-6.239590576999956]]]}},{"type":"Feature","properties":{"grid_id":"H0108","name":"Hex Demo 108","manual_score":2.819954,"population":3347,"purchasing_power_total":38663197,"edu_formal":10,"residential":14,"hospital":2,"recommendation_arin_ndbi":"NO","ses_abc":"B"},"geometry":{"type":"Polygon","coordinates":[[[107.01298279935156,-6.239590576999956],[107.01298279935156,-6.194590576999956],[106.97401165618126,-6.172090576999956],[106.93504051301096,-6.194590576999956],[106.93504051301096,-6.239590576999956],[106.97401165618126,-6.262090576999956],[107.01298279935156,-6.239590576999956]]]}},{"type":"Feature","properties":{"grid_id":"H0109","name":"Hex Demo 109","manual_score":3.136409,"population":1527,"purchasing_power_total":184780931,"edu_formal":2,"residential":14,"hospital":3,"recommendation_arin_ndbi":"NO","ses_abc":"A"},"geometry":{"type":"Polygon","coordinates":[[[107.09092508569216,-6.239590576999956],[107.09092508569216,-6.194590576999956],[107.05195394252186,-6.172090576999956],[107.01298279935156,-6.194590576999956],[107.01298279935156,-6.239590576999956],[107.05195394252186,-6.262090576999956],[107.09092508569216,-6.239590576999956]]]}},{"type":"Feature","properties":{"grid_id":"H0110","name":"Hex Demo 110","manual_score":1.301026,"population":1341,"purchasing_power_total":321133491,"edu_formal":8,"residential":1,"hospital":2,"recommendation_arin_ndbi":"NO","ses_abc":"C"},"geometry":{"type":"Polygon","coordinates":[[[107.16886737203276,-6.239590576999956],[107.16886737203276,-6.194590576999956],[107.12989622886246,-6.172090576999956],[107.09092508569216,-6.194590576999956],[107.09092508569216,-6.239590576999956],[107.12989622886246,-6.262090576999956],[107.16886737203276,-6.239590576999956]]]}},{"type":"Feature","properties":{"grid_id":"H0111","name":"Hex Demo 111","manual_score":2.940509,"population":3307,"purchasing_power_total":68667529,"edu_formal":3,"residential":16,"hospital":4,"recommendation_arin_ndbi":"NO","ses_abc":"B"},"geometry":{"type":"Polygon","coordinates":[[[107.24680965837335,-6.239590576999956],[107.24680965837335,-6.194590576999956],[107.20783851520305,-6.172090576999956],[107.16886737203275,-6.194590576999956],[107.16886737203275,-6.239590576999956],[107.20783851520305,-6.262090576999956],[107.24680965837335,-6.239590576999956]]]}},{"type":"Feature","properties":{"grid_id":"H0112","name":"Hex Demo 112","manual_score":4.949623,"population":1043,"purchasing_power_total":198747377,"edu_formal":17,"residential":6,"hospital":4,"recommendation_arin_ndbi":"YES","ses_abc":"B"},"geometry":{"type":"Polygon","coordinates":[[[107.32475194471395,-6.239590576999956],[107.32475194471395,-6.194590576999956],[107.28578080154365,-6.172090576999956],[107.24680965837335,-6.194590576999956],[107.24680965837335,-6.239590576999956],[107.28578080154365,-6.262090576999956],[107.32475194471395,-6.239590576999956]]]}},{"type":"Feature","properties":{"grid_id":"H0113","name":"Hex Demo 113","manual_score":3.933291,"population":2477,"purchasing_power_total":320918106,"edu_formal":5,"residential":6,"hospital":2,"recommendation_arin_ndbi":"YES","ses_abc":"B"},"geometry":{"type":"Polygon","coordinates":[[[106.42841565179707,-6.172090576999956],[106.42841565179707,-6.127090576999956],[106.38944450862677,-6.104590576999956],[106.35047336545647,-6.127090576999956],[106.35047336545647,-6.172090576999956],[106.38944450862677,-6.194590576999956],[106.42841565179707,-6.172090576999956]]]}},{"type":"Feature","properties":{"grid_id":"H0114","name":"Hex Demo 114","manual_score":3.462683,"population":3283,"purchasing_power_total":317570245,"edu_formal":8,"residential":5,"hospital":3,"recommendation_arin_ndbi":"NO","ses_abc":"A"},"geometry":{"type":"Polygon","coordinates":[[[106.50635793813767,-6.172090576999956],[106.50635793813767,-6.127090576999956],[106.46738679496737,-6.104590576999956],[106.42841565179707,-6.127090576999956],[106.42841565179707,-6.172090576999956],[106.46738679496737,-6.194590576999956],[106.50635793813767,-6.172090576999956]]]}},{"type":"Feature","properties":{"grid_id":"H0115","name":"Hex Demo 115","manual_score":1.786326,"population":86,"purchasing_power_total":331811942,"edu_formal":2,"residential":27,"hospital":4,"recommendation_arin_ndbi":"NO","ses_abc":"A"},"geometry":{"type":"Polygon","coordinates":[[[106.58430022447826,-6.172090576999956],[106.58430022447826,-6.127090576999956],[106.54532908130795,-6.104590576999956],[106.50635793813765,-6.127090576999956],[106.50635793813765,-6.172090576999956],[106.54532908130795,-6.194590576999956],[106.58430022447826,-6.172090576999956]]]}},{"type":"Feature","properties":{"grid_id":"H0116","name":"Hex Demo 116","manual_score":4.489562,"population":455,"purchasing_power_total":72731312,"edu_formal":19,"residential":10,"hospital":5,"recommendation_arin_ndbi":"YES","ses_abc":"B"},"geometry":{"type":"Polygon","coordinates":[[[106.66224251081886,-6.172090576999956],[106.66224251081886,-6.127090576999956],[106.62327136764856,-6.104590576999956],[106.58430022447826,-6.127090576999956],[106.58430022447826,-6.172090576999956],[106.62327136764856,-6.194590576999956],[106.66224251081886,-6.172090576999956]]]}},{"type":"Feature","properties":{"grid_id":"H0117","name":"Hex Demo 117","manual_score":2.080665,"population":1994,"purchasing_power_total":342887077,"edu_formal":18,"residential":14,"hospital":3,"recommendation_arin_ndbi":"NO","ses_abc":"A"},"geometry":{"type":"Polygon","coordinates":[[[106.74018479715946,-6.172090576999956],[106.74018479715946,-6.127090576999956],[106.70121365398916,-6.104590576999956],[106.66224251081886,-6.127090576999956],[106.66224251081886,-6.172090576999956],[106.70121365398916,-6.194590576999956],[106.74018479715946,-6.172090576999956]]]}},{"type":"Feature","properties":{"grid_id":"H0118","name":"Hex Demo 118","manual_score":1.301009,"population":2051,"purchasing_power_total":362205014,"edu_formal":8,"residential":18,"hospital":4,"recommendation_arin_ndbi":"NO","ses_abc":"B"},"geometry":{"type":"Polygon","coordinates":[[[106.81812708350006,-6.172090576999956],[106.81812708350006,-6.127090576999956],[106.77915594032976,-6.104590576999956],[106.74018479715946,-6.127090576999956],[106.74018479715946,-6.172090576999956],[106.77915594032976,-6.194590576999956],[106.81812708350006,-6.172090576999956]]]}},{"type":"Feature","properties":{"grid_id":"H0119","name":"Hex Demo 119","manual_score":2.453342,"population":812,"purchasing_power_total":7205574,"edu_formal":17,"residential":13,"hospital":0,"recommendation_arin_ndbi":"NO","ses_abc":"A"},"geometry":{"type":"Polygon","coordinates":[[[106.89606936984066,-6.172090576999956],[106.89606936984066,-6.127090576999956],[106.85709822667036,-6.104590576999956],[106.81812708350006,-6.127090576999956],[106.81812708350006,-6.172090576999956],[106.85709822667036,-6.194590576999956],[106.89606936984066,-6.172090576999956]]]}},{"type":"Feature","properties":{"grid_id":"H0120","name":"Hex Demo 120","manual_score":2.060279,"population":1234,"purchasing_power_total":254817545,"edu_formal":6,"residential":16,"hospital":0,"recommendation_arin_ndbi":"NO","ses_abc":"A"},"geometry":{"type":"Polygon","coordinates":[[[106.97401165618126,-6.172090576999956],[106.97401165618126,-6.127090576999956],[106.93504051301096,-6.104590576999956],[106.89606936984066,-6.127090576999956],[106.89606936984066,-6.172090576999956],[106.93504051301096,-6.194590576999956],[106.97401165618126,-6.172090576999956]]]}},{"type":"Feature","properties":{"grid_id":"H0121","name":"Hex Demo 121","manual_score":2.319023,"population":4919,"purchasing_power_total":40462776,"edu_formal":17,"residential":21,"hospital":2,"recommendation_arin_ndbi":"NO","ses_abc":"C"},"geometry":{"type":"Polygon","coordinates":[[[107.05195394252186,-6.172090576999956],[107.05195394252186,-6.127090576999956],[107.01298279935156,-6.104590576999956],[106.97401165618126,-6.127090576999956],[106.97401165618126,-6.172090576999956],[107.01298279935156,-6.194590576999956],[107.05195394252186,-6.172090576999956]]]}},{"type":"Feature","properties":{"grid_id":"H0122","name":"Hex Demo 122","manual_score":1.649458,"population":4946,"purchasing_power_total":341485469,"edu_formal":17,"residential":10,"hospital":1,"recommendation_arin_ndbi":"NO","ses_abc":"B"},"geometry":{"type":"Polygon","coordinates":[[[107.12989622886246,-6.172090576999956],[107.12989622886246,-6.127090576999956],[107.09092508569216,-6.104590576999956],[107.05195394252186,-6.127090576999956],[107.05195394252186,-6.172090576999956],[107.09092508569216,-6.194590576999956],[107.12989622886246,-6.172090576999956]]]}},{"type":"Feature","properties":{"grid_id":"H0123","name":"Hex Demo 123","manual_score":4.559506,"population":2432,"purchasing_power_total":299552502,"edu_formal":13,"residential":21,"hospital":4,"recommendation_arin_ndbi":"YES","ses_abc":"C"},"geometry":{"type":"Polygon","coordinates":[[[107.20783851520305,-6.172090576999956],[107.20783851520305,-6.127090576999956],[107.16886737203275,-6.104590576999956],[107.12989622886245,-6.127090576999956],[107.12989622886245,-6.172090576999956],[107.16886737203275,-6.194590576999956],[107.20783851520305,-6.172090576999956]]]}},{"type":"Feature","properties":{"grid_id":"H0124","name":"Hex Demo 124","manual_score":2.898881,"population":2225,"purchasing_power_total":101043179,"edu_formal":12,"residential":5,"hospital":1,"recommendation_arin_ndbi":"NO","ses_abc":"B"},"geometry":{"type":"Polygon","coordinates":[[[107.28578080154365,-6.172090576999956],[107.28578080154365,-6.127090576999956],[107.24680965837335,-6.104590576999956],[107.20783851520305,-6.127090576999956],[107.20783851520305,-6.172090576999956],[107.24680965837335,-6.194590576999956],[107.28578080154365,-6.172090576999956]]]}},{"type":"Feature","properties":{"grid_id":"H0125","name":"Hex Demo 125","manual_score":4.289337,"population":4760,"purchasing_power_total":487525394,"edu_formal":6,"residential":4,"hospital":4,"recommendation_arin_ndbi":"YES","ses_abc":"C"},"geometry":{"type":"Polygon","coordinates":[[[106.38944450862677,-6.104590576999956],[106.38944450862677,-6.059590576999956],[106.35047336545647,-6.037090576999956],[106.31150222228617,-6.059590576999956],[106.31150222228617,-6.104590576999956],[106.35047336545647,-6.127090576999956],[106.38944450862677,-6.104590576999956]]]}},{"type":"Feature","properties":{"grid_id":"H0126","name":"Hex Demo 126","manual_score":4.05379,"population":460,"purchasing_power_total":404582805,"edu_formal":6,"residential":11,"hospital":5,"recommendation_arin_ndbi":"YES","ses_abc":"C"},"geometry":{"type":"Polygon","coordinates":[[[106.46738679496737,-6.104590576999956],[106.46738679496737,-6.059590576999956],[106.42841565179707,-6.037090576999956],[106.38944450862677,-6.059590576999956],[106.38944450862677,-6.104590576999956],[106.42841565179707,-6.127090576999956],[106.46738679496737,-6.104590576999956]]]}},{"type":"Feature","properties":{"grid_id":"H0127","name":"Hex Demo 127","manual_score":3.134186,"population":2256,"purchasing_power_total":195576526,"edu_formal":12,"residential":26,"hospital":4,"recommendation_arin_ndbi":"NO","ses_abc":"A"},"geometry":{"type":"Polygon","coordinates":[[[106.54532908130795,-6.104590576999956],[106.54532908130795,-6.059590576999956],[106.50635793813765,-6.037090576999956],[106.46738679496735,-6.059590576999956],[106.46738679496735,-6.104590576999956],[106.50635793813765,-6.127090576999956],[106.54532908130795,-6.104590576999956]]]}},{"type":"Feature","properties":{"grid_id":"H0128","name":"Hex Demo 128","manual_score":4.500294,"population":4673,"purchasing_power_total":153363243,"edu_formal":12,"residential":11,"hospital":5,"recommendation_arin_ndbi":"YES","ses_abc":"C"},"geometry":{"type":"Polygon","coordinates":[[[106.62327136764856,-6.104590576999956],[106.62327136764856,-6.059590576999956],[106.58430022447826,-6.037090576999956],[106.54532908130795,-6.059590576999956],[106.54532908130795,-6.104590576999956],[106.58430022447826,-6.127090576999956],[106.62327136764856,-6.104590576999956]]]}},{"type":"Feature","properties":{"grid_id":"H0129","name":"Hex Demo 129","manual_score":1.102963,"population":3612,"purchasing_power_total":236299561,"edu_formal":16,"residential":8,"hospital":3,"recommendation_arin_ndbi":"NO","ses_abc":"B"},"geometry":{"type":"Polygon","coordinates":[[[106.70121365398916,-6.104590576999956],[106.70121365398916,-6.059590576999956],[106.66224251081886,-6.037090576999956],[106.62327136764856,-6.059590576999956],[106.62327136764856,-6.104590576999956],[106.66224251081886,-6.127090576999956],[106.70121365398916,-6.104590576999956]]]}},{"type":"Feature","properties":{"grid_id":"H0130","name":"Hex Demo 130","manual_score":3.704576,"population":4313,"purchasing_power_total":168144474,"edu_formal":13,"residential":5,"hospital":4,"recommendation_arin_ndbi":"YES","ses_abc":"C"},"geometry":{"type":"Polygon","coordinates":[[[106.77915594032976,-6.104590576999956],[106.77915594032976,-6.059590576999956],[106.74018479715946,-6.037090576999956],[106.70121365398916,-6.059590576999956],[106.70121365398916,-6.104590576999956],[106.74018479715946,-6.127090576999956],[106.77915594032976,-6.104590576999956]]]}},{"type":"Feature","properties":{"grid_id":"H0131","name":"Hex Demo 131","manual_score":3.218863,"population":463,"purchasing_power_total":182275282,"edu_formal":11,"residential":24,"hospital":1,"recommendation_arin_ndbi":"NO","ses_abc":"C"},"geometry":{"type":"Polygon","coordinates":[[[106.85709822667036,-6.104590576999956],[106.85709822667036,-6.059590576999956],[106.81812708350006,-6.037090576999956],[106.77915594032976,-6.059590576999956],[106.77915594032976,-6.104590576999956],[106.81812708350006,-6.127090576999956],[106.85709822667036,-6.104590576999956]]]}},{"type":"Feature","properties":{"grid_id":"H0132","name":"Hex Demo 132","manual_score":2.982272,"population":1934,"purchasing_power_total":98367941,"edu_formal":13,"residential":21,"hospital":0,"recommendation_arin_ndbi":"NO","ses_abc":"A"},"geometry":{"type":"Polygon","coordinates":[[[106.93504051301096,-6.104590576999956],[106.93504051301096,-6.059590576999956],[106.89606936984066,-6.037090576999956],[106.85709822667036,-6.059590576999956],[106.85709822667036,-6.104590576999956],[106.89606936984066,-6.127090576999956],[106.93504051301096,-6.104590576999956]]]}},{"type":"Feature","properties":{"grid_id":"H0133","name":"Hex Demo 133","manual_score":3.676307,"population":897,"purchasing_power_total":190526062,"edu_formal":9,"residential":10,"hospital":2,"recommendation_arin_ndbi":"YES","ses_abc":"B"},"geometry":{"type":"Polygon","coordinates":[[[107.01298279935156,-6.104590576999956],[107.01298279935156,-6.059590576999956],[106.97401165618126,-6.037090576999956],[106.93504051301096,-6.059590576999956],[106.93504051301096,-6.104590576999956],[106.97401165618126,-6.127090576999956],[107.01298279935156,-6.104590576999956]]]}},{"type":"Feature","properties":{"grid_id":"H0134","name":"Hex Demo 134","manual_score":1.23602,"population":4038,"purchasing_power_total":66034369,"edu_formal":3,"residential":29,"hospital":2,"recommendation_arin_ndbi":"NO","ses_abc":"B"},"geometry":{"type":"Polygon","coordinates":[[[107.09092508569216,-6.104590576999956],[107.09092508569216,-6.059590576999956],[107.05195394252186,-6.037090576999956],[107.01298279935156,-6.059590576999956],[107.01298279935156,-6.104590576999956],[107.05195394252186,-6.127090576999956],[107.09092508569216,-6.104590576999956]]]}},{"type":"Feature","properties":{"grid_id":"H0135","name":"Hex Demo 135","manual_score":1.678682,"population":4059,"purchasing_power_total":322364226,"edu_formal":15,"residential":3,"hospital":3,"recommendation_arin_ndbi":"NO","ses_abc":"B"},"geometry":{"type":"Polygon","coordinates":[[[107.16886737203276,-6.104590576999956],[107.16886737203276,-6.059590576999956],[107.12989622886246,-6.037090576999956],[107.09092508569216,-6.059590576999956],[107.09092508569216,-6.104590576999956],[107.12989622886246,-6.127090576999956],[107.16886737203276,-6.104590576999956]]]}},{"type":"Feature","properties":{"grid_id":"H0136","name":"Hex Demo 136","manual_score":1.990007,"population":2434,"purchasing_power_total":49776396,"edu_formal":17,"residential":7,"hospital":0,"recommendation_arin_ndbi":"NO","ses_abc":"C"},"geometry":{"type":"Polygon","coordinates":[[[107.24680965837335,-6.104590576999956],[107.24680965837335,-6.059590576999956],[107.20783851520305,-6.037090576999956],[107.16886737203275,-6.059590576999956],[107.16886737203275,-6.104590576999956],[107.20783851520305,-6.127090576999956],[107.24680965837335,-6.104590576999956]]]}},{"type":"Feature","properties":{"grid_id":"H0137","name":"Hex Demo 137","manual_score":2.65943,"population":703,"purchasing_power_total":91828364,"edu_formal":3,"residential":14,"hospital":0,"recommendation_arin_ndbi":"NO","ses_abc":"A"},"geometry":{"type":"Polygon","coordinates":[[[107.32475194471395,-6.104590576999956],[107.32475194471395,-6.059590576999956],[107.28578080154365,-6.037090576999956],[107.24680965837335,-6.059590576999956],[107.24680965837335,-6.104590576999956],[107.28578080154365,-6.127090576999956],[107.32475194471395,-6.104590576999956]]]}},{"type":"Feature","properties":{"grid_id":"H0138","name":"Hex Demo 138","manual_score":1.406029,"population":1505,"purchasing_power_total":463663085,"edu_formal":1,"residential":24,"hospital":2,"recommendation_arin_ndbi":"NO","ses_abc":"A"},"geometry":{"type":"Polygon","coordinates":[[[106.42841565179707,-6.037090576999955],[106.42841565179707,-5.9920905769999555],[106.38944450862677,-5.9695905769999555],[106.35047336545647,-5.9920905769999555],[106.35047336545647,-6.037090576999955],[106.38944450862677,-6.059590576999955],[106.42841565179707,-6.037090576999955]]]}},{"type":"Feature","properties":{"grid_id":"H0139","name":"Hex Demo 139","manual_score":3.725619,"population":2323,"purchasing_power_total":249911884,"edu_formal":16,"residential":22,"hospital":3,"recommendation_arin_ndbi":"YES","ses_abc":"B"},"geometry":{"type":"Polygon","coordinates":[[[106.50635793813767,-6.037090576999955],[106.50635793813767,-5.9920905769999555],[106.46738679496737,-5.9695905769999555],[106.42841565179707,-5.9920905769999555],[106.42841565179707,-6.037090576999955],[106.46738679496737,-6.059590576999955],[106.50635793813767,-6.037090576999955]]]}},{"type":"Feature","properties":{"grid_id":"H0140","name":"Hex Demo 140","manual_score":2.873882,"population":1956,"purchasing_power_total":195890574,"edu_formal":18,"residential":20,"hospital":4,"recommendation_arin_ndbi":"NO","ses_abc":"A"},"geometry":{"type":"Polygon","coordinates":[[[106.58430022447826,-6.037090576999955],[106.58430022447826,-5.9920905769999555],[106.54532908130795,-5.9695905769999555],[106.50635793813765,-5.9920905769999555],[106.50635793813765,-6.037090576999955],[106.54532908130795,-6.059590576999955],[106.58430022447826,-6.037090576999955]]]}},{"type":"Feature","properties":{"grid_id":"H0141","name":"Hex Demo 141","manual_score":4.061183,"population":4015,"purchasing_power_total":15039744,"edu_formal":17,"residential":0,"hospital":3,"recommendation_arin_ndbi":"YES","ses_abc":"C"},"geometry":{"type":"Polygon","coordinates":[[[106.66224251081886,-6.037090576999955],[106.66224251081886,-5.9920905769999555],[106.62327136764856,-5.9695905769999555],[106.58430022447826,-5.9920905769999555],[106.58430022447826,-6.037090576999955],[106.62327136764856,-6.059590576999955],[106.66224251081886,-6.037090576999955]]]}},{"type":"Feature","properties":{"grid_id":"H0142","name":"Hex Demo 142","manual_score":4.135742,"population":3516,"purchasing_power_total":284375961,"edu_formal":1,"residential":21,"hospital":0,"recommendation_arin_ndbi":"YES","ses_abc":"B"},"geometry":{"type":"Polygon","coordinates":[[[106.74018479715946,-6.037090576999955],[106.74018479715946,-5.9920905769999555],[106.70121365398916,-5.9695905769999555],[106.66224251081886,-5.9920905769999555],[106.66224251081886,-6.037090576999955],[106.70121365398916,-6.059590576999955],[106.74018479715946,-6.037090576999955]]]}},{"type":"Feature","properties":{"grid_id":"H0143","name":"Hex Demo 143","manual_score":2.852885,"population":1055,"purchasing_power_total":59999011,"edu_formal":13,"residential":1,"hospital":2,"recommendation_arin_ndbi":"NO","ses_abc":"B"},"geometry":{"type":"Polygon","coordinates":[[[106.81812708350006,-6.037090576999955],[106.81812708350006,-5.9920905769999555],[106.77915594032976,-5.9695905769999555],[106.74018479715946,-5.9920905769999555],[106.74018479715946,-6.037090576999955],[106.77915594032976,-6.059590576999955],[106.81812708350006,-6.037090576999955]]]}},{"type":"Feature","properties":{"grid_id":"H0144","name":"Hex Demo 144","manual_score":1.932997,"population":2208,"purchasing_power_total":492713792,"edu_formal":13,"residential":17,"hospital":2,"recommendation_arin_ndbi":"NO","ses_abc":"A"},"geometry":{"type":"Polygon","coordinates":[[[106.89606936984066,-6.037090576999955],[106.89606936984066,-5.9920905769999555],[106.85709822667036,-5.9695905769999555],[106.81812708350006,-5.9920905769999555],[106.81812708350006,-6.037090576999955],[106.85709822667036,-6.059590576999955],[106.89606936984066,-6.037090576999955]]]}},{"type":"Feature","properties":{"grid_id":"H0145","name":"Hex Demo 145","manual_score":1.403287,"population":3754,"purchasing_power_total":198183044,"edu_formal":8,"residential":3,"hospital":4,"recommendation_arin_ndbi":"NO","ses_abc":"C"},"geometry":{"type":"Polygon","coordinates":[[[106.97401165618126,-6.037090576999955],[106.97401165618126,-5.9920905769999555],[106.93504051301096,-5.9695905769999555],[106.89606936984066,-5.9920905769999555],[106.89606936984066,-6.037090576999955],[106.93504051301096,-6.059590576999955],[106.97401165618126,-6.037090576999955]]]}},{"type":"Feature","properties":{"grid_id":"H0146","name":"Hex Demo 146","manual_score":1.818842,"population":269,"purchasing_power_total":240012904,"edu_formal":8,"residential":21,"hospital":1,"recommendation_arin_ndbi":"NO","ses_abc":"C"},"geometry":{"type":"Polygon","coordinates":[[[107.05195394252186,-6.037090576999955],[107.05195394252186,-5.9920905769999555],[107.01298279935156,-5.9695905769999555],[106.97401165618126,-5.9920905769999555],[106.97401165618126,-6.037090576999955],[107.01298279935156,-6.059590576999955],[107.05195394252186,-6.037090576999955]]]}},{"type":"Feature","properties":{"grid_id":"H0147","name":"Hex Demo 147","manual_score":3.071968,"population":1374,"purchasing_power_total":214552205,"edu_formal":9,"residential":6,"hospital":4,"recommendation_arin_ndbi":"NO","ses_abc":"C"},"geometry":{"type":"Polygon","coordinates":[[[107.12989622886246,-6.037090576999955],[107.12989622886246,-5.9920905769999555],[107.09092508569216,-5.9695905769999555],[107.05195394252186,-5.9920905769999555],[107.05195394252186,-6.037090576999955],[107.09092508569216,-6.059590576999955],[107.12989622886246,-6.037090576999955]]]}},{"type":"Feature","properties":{"grid_id":"H0148","name":"Hex Demo 148","manual_score":4.575256,"population":2832,"purchasing_power_total":77404041,"edu_formal":8,"residential":6,"hospital":4,"recommendation_arin_ndbi":"YES","ses_abc":"C"},"geometry":{"type":"Polygon","coordinates":[[[107.20783851520305,-6.037090576999955],[107.20783851520305,-5.9920905769999555],[107.16886737203275,-5.9695905769999555],[107.12989622886245,-5.9920905769999555],[107.12989622886245,-6.037090576999955],[107.16886737203275,-6.059590576999955],[107.20783851520305,-6.037090576999955]]]}},{"type":"Feature","properties":{"grid_id":"H0149","name":"Hex Demo 149","manual_score":1.044338,"population":4439,"purchasing_power_total":141894261,"edu_formal":7,"residential":27,"hospital":4,"recommendation_arin_ndbi":"NO","ses_abc":"A"},"geometry":{"type":"Polygon","coordinates":[[[107.28578080154365,-6.037090576999955],[107.28578080154365,-5.9920905769999555],[107.24680965837335,-5.9695905769999555],[107.20783851520305,-5.9920905769999555],[107.20783851520305,-6.037090576999955],[107.24680965837335,-6.059590576999955],[107.28578080154365,-6.037090576999955]]]}},{"type":"Feature","properties":{"grid_id":"H0150","name":"Hex Demo 150","manual_score":4.791164,"population":2538,"purchasing_power_total":390115780,"edu_formal":14,"residential":27,"hospital":2,"recommendation_arin_ndbi":"YES","ses_abc":"B"},"geometry":{"type":"Polygon","coordinates":[[[106.38944450862677,-5.9695905769999555],[106.38944450862677,-5.924590576999956],[106.35047336545647,-5.902090576999956],[106.31150222228617,-5.924590576999956],[106.31150222228617,-5.9695905769999555],[106.35047336545647,-5.9920905769999555],[106.38944450862677,-5.9695905769999555]]]}},{"type":"Feature","properties":{"grid_id":"H0151","name":"Hex Demo 151","manual_score":4.42549,"population":3580,"purchasing_power_total":66006381,"edu_formal":7,"residential":6,"hospital":4,"recommendation_arin_ndbi":"YES","ses_abc":"C"},"geometry":{"type":"Polygon","coordinates":[[[106.46738679496737,-5.9695905769999555],[106.46738679496737,-5.924590576999956],[106.42841565179707,-5.902090576999956],[106.38944450862677,-5.924590576999956],[106.38944450862677,-5.9695905769999555],[106.42841565179707,-5.9920905769999555],[106.46738679496737,-5.9695905769999555]]]}},{"type":"Feature","properties":{"grid_id":"H0152","name":"Hex Demo 152","manual_score":3.580811,"population":3420,"purchasing_power_total":374062402,"edu_formal":2,"residential":3,"hospital":3,"recommendation_arin_ndbi":"YES","ses_abc":"C"},"geometry":{"type":"Polygon","coordinates":[[[106.54532908130795,-5.9695905769999555],[106.54532908130795,-5.924590576999956],[106.50635793813765,-5.902090576999956],[106.46738679496735,-5.924590576999956],[106.46738679496735,-5.9695905769999555],[106.50635793813765,-5.9920905769999555],[106.54532908130795,-5.9695905769999555]]]}},{"type":"Feature","properties":{"grid_id":"H0153","name":"Hex Demo 153","manual_score":1.029446,"population":3918,"purchasing_power_total":246875388,"edu_formal":2,"residential":26,"hospital":5,"recommendation_arin_ndbi":"NO","ses_abc":"A"},"geometry":{"type":"Polygon","coordinates":[[[106.62327136764856,-5.9695905769999555],[106.62327136764856,-5.924590576999956],[106.58430022447826,-5.902090576999956],[106.54532908130795,-5.924590576999956],[106.54532908130795,-5.9695905769999555],[106.58430022447826,-5.9920905769999555],[106.62327136764856,-5.9695905769999555]]]}},{"type":"Feature","properties":{"grid_id":"H0154","name":"Hex Demo 154","manual_score":3.721101,"population":828,"purchasing_power_total":208322700,"edu_formal":5,"residential":3,"hospital":4,"recommendation_arin_ndbi":"YES","ses_abc":"A"},"geometry":{"type":"Polygon","coordinates":[[[106.70121365398916,-5.9695905769999555],[106.70121365398916,-5.924590576999956],[106.66224251081886,-5.902090576999956],[106.62327136764856,-5.924590576999956],[106.62327136764856,-5.9695905769999555],[106.66224251081886,-5.9920905769999555],[106.70121365398916,-5.9695905769999555]]]}},{"type":"Feature","properties":{"grid_id":"H0155","name":"Hex Demo 155","manual_score":2.939208,"population":2256,"purchasing_power_total":127832848,"edu_formal":19,"residential":14,"hospital":4,"recommendation_arin_ndbi":"NO","ses_abc":"B"},"geometry":{"type":"Polygon","coordinates":[[[106.77915594032976,-5.9695905769999555],[106.77915594032976,-5.924590576999956],[106.74018479715946,-5.902090576999956],[106.70121365398916,-5.924590576999956],[106.70121365398916,-5.9695905769999555],[106.74018479715946,-5.9920905769999555],[106.77915594032976,-5.9695905769999555]]]}},{"type":"Feature","properties":{"grid_id":"H0156","name":"Hex Demo 156","manual_score":1.542674,"population":1042,"purchasing_power_total":373631159,"edu_formal":18,"residential":14,"hospital":2,"recommendation_arin_ndbi":"NO","ses_abc":"B"},"geometry":{"type":"Polygon","coordinates":[[[106.85709822667036,-5.9695905769999555],[106.85709822667036,-5.924590576999956],[106.81812708350006,-5.902090576999956],[106.77915594032976,-5.924590576999956],[106.77915594032976,-5.9695905769999555],[106.81812708350006,-5.9920905769999555],[106.85709822667036,-5.9695905769999555]]]}},{"type":"Feature","properties":{"grid_id":"H0157","name":"Hex Demo 157","manual_score":1.138413,"population":3906,"purchasing_power_total":454613576,"edu_formal":4,"residential":1,"hospital":4,"recommendation_arin_ndbi":"NO","ses_abc":"A"},"geometry":{"type":"Polygon","coordinates":[[[106.93504051301096,-5.9695905769999555],[106.93504051301096,-5.924590576999956],[106.89606936984066,-5.902090576999956],[106.85709822667036,-5.924590576999956],[106.85709822667036,-5.9695905769999555],[106.89606936984066,-5.9920905769999555],[106.93504051301096,-5.9695905769999555]]]}},{"type":"Feature","properties":{"grid_id":"H0158","name":"Hex Demo 158","manual_score":1.217727,"population":4070,"purchasing_power_total":150598917,"edu_formal":9,"residential":13,"hospital":4,"recommendation_arin_ndbi":"NO","ses_abc":"A"},"geometry":{"type":"Polygon","coordinates":[[[107.01298279935156,-5.9695905769999555],[107.01298279935156,-5.924590576999956],[106.97401165618126,-5.902090576999956],[106.93504051301096,-5.924590576999956],[106.93504051301096,-5.9695905769999555],[106.97401165618126,-5.9920905769999555],[107.01298279935156,-5.9695905769999555]]]}},{"type":"Feature","properties":{"grid_id":"H0159","name":"Hex Demo 159","manual_score":2.203013,"population":4292,"purchasing_power_total":328891113,"edu_formal":11,"residential":8,"hospital":4,"recommendation_arin_ndbi":"NO","ses_abc":"C"},"geometry":{"type":"Polygon","coordinates":[[[107.09092508569216,-5.9695905769999555],[107.09092508569216,-5.924590576999956],[107.05195394252186,-5.902090576999956],[107.01298279935156,-5.924590576999956],[107.01298279935156,-5.9695905769999555],[107.05195394252186,-5.9920905769999555],[107.09092508569216,-5.9695905769999555]]]}},{"type":"Feature","properties":{"grid_id":"H0160","name":"Hex Demo 160","manual_score":4.263687,"population":2561,"purchasing_power_total":14607568,"edu_formal":10,"residential":1,"hospital":1,"recommendation_arin_ndbi":"YES","ses_abc":"B"},"geometry":{"type":"Polygon","coordinates":[[[107.16886737203276,-5.9695905769999555],[107.16886737203276,-5.924590576999956],[107.12989622886246,-5.902090576999956],[107.09092508569216,-5.924590576999956],[107.09092508569216,-5.9695905769999555],[107.12989622886246,-5.9920905769999555],[107.16886737203276,-5.9695905769999555]]]}},{"type":"Feature","properties":{"grid_id":"H0161","name":"Hex Demo 161","manual_score":2.055239,"population":3744,"purchasing_power_total":228346439,"edu_formal":16,"residential":4,"hospital":3,"recommendation_arin_ndbi":"NO","ses_abc":"A"},"geometry":{"type":"Polygon","coordinates":[[[107.24680965837335,-5.9695905769999555],[107.24680965837335,-5.924590576999956],[107.20783851520305,-5.902090576999956],[107.16886737203275,-5.924590576999956],[107.16886737203275,-5.9695905769999555],[107.20783851520305,-5.9920905769999555],[107.24680965837335,-5.9695905769999555]]]}},{"type":"Feature","properties":{"grid_id":"H0162","name":"Hex Demo 162","manual_score":2.989881,"population":2881,"purchasing_power_total":40504156,"edu_formal":1,"residential":16,"hospital":3,"recommendation_arin_ndbi":"NO","ses_abc":"B"},"geometry":{"type":"Polygon","coordinates":[[[107.32475194471395,-5.9695905769999555],[107.32475194471395,-5.924590576999956],[107.28578080154365,-5.902090576999956],[107.24680965837335,-5.924590576999956],[107.24680965837335,-5.9695905769999555],[107.28578080154365,-5.9920905769999555],[107.32475194471395,-5.9695905769999555]]]}}]}